idpoi,title,layer,type,tipo,subcategoria,address,postcode,phone,web,description,image_uri,lat,lon,mp3_uri,lang
8705,Porto comercial de Vigo,lugares,40,Ría de Vigo,Porto comercial,"Avenida de Guixar, s/n",36201,986268000,www.apvigo.com,Espazo loxístico destinado ao transporte e almacenamento de mercadorías por mar.,http://www.turismodevigo.org/sites/turismodevigo/files/lug349.jpg,42.2477364414765,-8.70888256040916,,gl-ES
8639,Monumento a los Galeones de Rande,lugares,39,Monumentos,Escultura,Monte do Castro,36203,,,"Obra do arquitecto Desiderio Pernas, é unha gran plataforma sobre a que están situadas tres áncoras de navíos afundidos na Batalla de Rande, librada na Ría de Vigo en 1702 entre a armada anglo-holandesa e unha frota  hispana e francesa.",http://www.turismodevigo.org/sites/turismodevigo/files/lug274.jpg,42.2334156413138,-8.726611864171218,http://www.turismodevigo.org/sites/turismodevigo/files/03-batalla_de_rande_galego_0.mp3,gl-ES
8402,MARCO. Museo de Arte Contemporánea de Vigo,lugares,38,Museos,Centro de arte contemporánea,"Príncipe, 54",36202,986113900,www.marcovigo.com,"MARCO non ten colección permanente e funciona como centro de arte contemporánea, cun programa de exposicións temporais e un conxunto de actividades paralelas das que o programa educativo é unha parte esencial.",http://www.turismodevigo.org/sites/turismodevigo/files/lug020.jpg,42.2359738934723,-8.721122108231498,http://www.turismodevigo.org/sites/turismodevigo/files/09-museo_de_arte_contemporanea_de_vigo_0.mp3,gl-ES
8688,Auditorio del Museo de Arte Contemporánea de Vigo (MARCO),lugares,37,Edificios singulares,Auditorio,"Príncipe, 54",36202,986113900,www.marcovigo.com,Espazo habilitado para a realización de eventos públicos.,http://www.turismodevigo.org/sites/turismodevigo/files/lug325.jpg,42.2358593745221,-8.721064892983577,http://www.turismodevigo.org/sites/turismodevigo/files/09-museo_de_arte_contemporanea_de_vigo.mp3,gl-ES
8720,"Museo Municipal de Vigo ""Quiñones de León""",lugares,45,Paradas do bus turístico,Posible visita a pe,"Parque de Castrelos, s/n",36213,986291600,www.vitrasa.es,Parada fronte ao museo Quiñones de León.,http://www.turismodevigo.org/sites/turismodevigo/files/lug364.jpg,42.2143011493124,-8.727182229966047,http://www.turismodevigo.org/sites/turismodevigo/files/08-museo_quinones_de_leon_galego_0.mp3,gl-ES
8406,"Museo Municipal de Vigo ""Quiñones de León""",lugares,38,Museos,Arquitectura civil,"Parque de Castrelos, s/n",36213,986295070,www.museodevigo.org,"O museo municipal de Vigo íQuiñones de Leóní é unha institución, dependente do Concello de Vigo, encadrada, actualmente, en Cultura, Festas e Museos.",http://www.turismodevigo.org/sites/turismodevigo/files/lug024.jpg,42.2131763333631,-8.727810303803153,http://www.turismodevigo.org/sites/turismodevigo/files/08-museo_quinones_de_leon_galego.mp3,gl-ES
8433,Casa Enrique Mülder,lugares,37,Edificios singulares,Arquitectura civil,"Avda Montero Ríos, 22",36201,,,"É unha das obras con carácter máis modernista do arquitecto Gómez Román aínda que tamén presenta influencias eclécticas, vienesas e belgas.",http://www.turismodevigo.org/sites/turismodevigo/files/lug052.jpg,42.2402628825264,-8.722306001475545,http://www.turismodevigo.org/sites/turismodevigo/files/07-edificio_mulder_galego.mp3,gl-ES
8459,Colexiata de Santa María (Concatedral),lugares,37,Edificios singulares,Arquitectura relixiosa,Plaza de la Colegiata,36202,,,"Edificio relixioso de estilo Neoclásico de principios do século XIX, obra de Melchor de Prado. Actualmente é Concatedral da diocese de Tui-Vigo.",http://www.turismodevigo.org/sites/turismodevigo/files/lug078.jpg,42.2392728022593,-8.725825075030343,http://www.turismodevigo.org/sites/turismodevigo/files/06-concatedral_de_vigo_galego.mp3,gl-ES
8523,Cruceiro do adro da igrexa de Bembrive,lugares,37,Edificios singulares,Arquitectura relixiosa,"A Igrexa, s/n",36313,,,"No anverso ten a Cristo crucificado con tres cravos e atado, cunha caveira e dúas tibias cruzadas aos seus pés. No reverso ten á Piedade con gran volume de roupaxes e un cristo.",http://www.turismodevigo.org/sites/turismodevigo/files/lug148.jpg,42.2038285339502,-8.68691324300314,,gl-ES
8428,Casa de Pazos e Figueroa,lugares,37,Edificios singulares,Arquitectura civil,"Plaza de Almeida, 4",36202,,,"Palacete urbano situado no barrio histórico da cidade. Forma unidade arquitectónica coa Casa de Ceta; na actualidade, ambos os dous conforman a sede do Instituto Camôes de Cultura Portuguesa en Vigo. Data do século XVI.",http://www.turismodevigo.org/sites/turismodevigo/files/lug047.jpg,42.2391856088788,-8.726658277905358,http://www.turismodevigo.org/sites/turismodevigo/files/05-torre_e_casa_dos_pazos_de_figueroa.mp3,gl-ES
8615,Vila Romana de Toralla,lugares,38,Museos,Xacemento,Canido - Barrio Illa de Toralla - Carretera PO 324,36391,986810260,,"A principal particularidade deste depósito, que data dos séculos IV e V despois de Cristo, é que é a única vila de Galicia que está escavada integramente e pode ser visitada.",http://www.turismodevigo.org/sites/turismodevigo/files/lug250.jpg,42.1962806038844,-8.795211533448764,http://www.turismodevigo.org/sites/turismodevigo/files/04-vila_romana_de_toralla.mp3,gl-ES
8714,Barcos de la Batalla de la Bahía de Vigo,lugares,40,Ría de Vigo,Pecio,"Estrecho de Rande, ría de Vigo",,,,"Integrado polos restos dos buques afundidos na Batalla de Rande, coñecida internacionalmente como a ""Batalla da Baía de Vigo"", librada en outubro de 1702 entre unha escuadra franco-española e unha anglo-holandesa.",http://www.turismodevigo.org/sites/turismodevigo/files/lug358.jpg,42.2888816448946,-8.659976877087615,http://www.turismodevigo.org/sites/turismodevigo/files/03-batalla_de_rande_galego.mp3,gl-ES
8592,Praia do Rodas,lugares,36,Cies,Praias,"Illa do Faro, Islas Cíes",36211,,,É a Praia máis grande e importante do Parque Natural Illas Cíes no cal se acha integrada. Foi cualificada como a mellor praia do mundo polo prestixioso diario The Guardian.,http://www.turismodevigo.org/sites/turismodevigo/files/lug227.jpg,42.221891869113,-8.903471372054128,,gl-ES
8733,Monte da Guía,lugares,41,Turismo urbano,,,,,,Un dos lugares máis visitados de Vigo,http://www.turismodevigo.org/sites/turismodevigo/files/lug377.jpg,42.255785,-8.70188,http://www.turismodevigo.org/sites/turismodevigo/files/lug377gl.mp3,gl-ES
8685,Auditorio del Club Financiero de Vigo,lugares,37,Edificios singulares,Auditorio,García Barbón 62,36201,986447220,www.clubfinancierovigo.com,Espazo habilitado para a realización de eventos públicos.,http://www.turismodevigo.org/sites/turismodevigo/files/lug322.jpg,42.2366756596314,-8.71221986331063,,gl-ES
8698,Salida y llegada del recorrido turístico en autobús,lugares,45,Paradas do bus turístico,Punto de orixe e destino,Rúa das Avendias,36202,986291600,www.vitrasa.es,Aquí comeza e termina o percorrido  turístico en autobús descapotable pola cidade de Vigo. Trátase dunha visita guiada cunha duración aproximada de 2 horas.,http://www.turismodevigo.org/sites/turismodevigo/files/lug335.jpg,42.2405697776661,-8.72610666445775,,gl-ES
8699,Terminal de Citröen,lugares,35,Puntos de información turística,Terminal de carga,"Puerto de Bouzas, s/n",36208,,www.vigo.psa-peugeot-citroen.com,Gran superficie loxística da empresa Citröen destinada ao almacenamento e transporte dos modelos de vehículo que a marca fabrica na súa factoría de Vigo.,http://www.turismodevigo.org/sites/turismodevigo/files/lug343.jpg,42.2283198335914,-8.76003594255815,,gl-ES
8700,Factoría PSA Peugeot Citröen,lugares,35,Puntos de información turística,Fábrica,"Avda. Citroín, 3-5",36210,986215000,www.vigo.psa-peugeot-citroen.com,"A planta produce catro vehículos distintos para as dúas marcas do Grupo, conta cun equipo de 6.500 empregados e as súas exportacións representan o 23,3% das exportacións de Galicia.",http://www.turismodevigo.org/sites/turismodevigo/files/lug344.jpg,42.2077097351399,-8.74131855513648,,gl-ES
8701,Lonja de El Berbés,lugares,35,Puntos de información turística,Lonxa de altura,Puerto pesquero de Vigo,36202,986821508,www.apvigo.com,Trátase da lonxa de peixe conxelado máis importante do mundo e a máis importante de Europa no referente a peixe fresco.,http://www.turismodevigo.org/sites/turismodevigo/files/lug345.jpg,42.2370936327125,-8.73098715156788,,gl-ES
8702,Asteleiro Vulcano,lugares,40,Ría de Vigo,Construcción de barcos,"Calle de la Devesa Santa Tegra, 69",36207,986266161,www.factoriasvulcano.com,Factoría con longa tradición na construción de buques. Está afincada na ría de Vigo dende 1919.,http://www.turismodevigo.org/sites/turismodevigo/files/lug346.jpg,42.2509603220018,-8.70508897920338,,gl-ES
8703,Asteleiro Barreras,lugares,40,Ría de Vigo,Construcción de barcos,"Avenida de Beiramar, 2",36208,986242293,www.hjbarreras.es,"A empresa foi fundada en 1982  e está destinada principalmente á construción de grandes buques tipo Ro-Ro, Ferrys, offshore, etc.",http://www.turismodevigo.org/sites/turismodevigo/files/lug347.jpg,42.2269296448707,-8.73943570034223,,gl-ES
8704,Club Nautico Punta Lagoa,lugares,40,Ría de Vigo,Porto deportivo,"Camiño Lagoa, s/n",36213,986374305,www.nauticopuntalagoa.com,Club náutico deportivo. Dispón de mariña e amarres para embarcacións deportivas.,http://www.turismodevigo.org/sites/turismodevigo/files/lug348.jpg,42.2557094770781,-8.70617713914583,,gl-ES
8697,Samil,lugares,45,Paradas do bus turístico,Posible visita a pe,Samil,36212,986291600,www.vitrasa.es,Parada fronte á Praia de Samil en Vigo.,,42.2109026146444,-8.77511335112866,,gl-ES
8696,O Castro de Vigo,lugares,45,Paradas do bus turístico,Posible visita a pe,Monte O Castro,36202,986291600,www.vitrasa.es,"Parada fronte ao depósito arqueolóxico de ""O Castro de Vigo"".",http://www.turismodevigo.org/sites/turismodevigo/files/lug333.jpg,42.2307648632387,-8.72580504981379,,gl-ES
8695,AeroPorto de Vigo,lugares,35,Puntos de información turística,Aeroporto,Avda. do Aeroporto s/n,36218,986268200,,Aeroporto de Peinador.,http://www.turismodevigo.org/sites/turismodevigo/files/lug332.jpg,42.2251531230541,-8.6325065972232,,gl-ES
8684,Auditorio de la Cámara de Comercio de Vigo,lugares,37,Edificios singulares,Auditorio,"República Argentina, 18",36201,986446343,www.camaravigo.com,Espazo habilitado para a realización de eventos públicos.,http://www.turismodevigo.org/sites/turismodevigo/files/lug321.jpg,42.2366043350156,-8.71884908268981,,gl-ES
8687,Auditorio del Museo do Mar de Galicia,lugares,37,Edificios singulares,Auditorio,"Avda. Atlántida, nº 160",36208,986247750,www.museodomar.com,Espazo habilitado para a realización de eventos públicos.,http://www.turismodevigo.org/sites/turismodevigo/files/lug324.jpg,42.2241397002066,-8.76992736745358,,gl-ES
8689,Verbum - Casa das Palabras,lugares,37,Edificios singulares,Auditorio,"Avda. de Samil, nº 17",36212,986240130,www.verbum.vigo.org,Espazo habilitado para a realización de eventos públicos.,http://www.turismodevigo.org/sites/turismodevigo/files/lug326.jpg,42.2129670379203,-8.77361620143955,,gl-ES
8690,Liceo Marítimo de Bouzas,lugares,40,Ría de Vigo,Porto deportivo,"Av. Eduardo Cabello, 8",36208,986239955,www.liceobouzas.com,Club náutico deportivo. Dispón de mariña e amarres para embarcacións deportivas.,http://www.turismodevigo.org/sites/turismodevigo/files/lug327.jpg,42.2267675141582,-8.75187920193049,,gl-ES
8691,Marina Davila Sport,lugares,40,Ría de Vigo,Porto deportivo,"Muelle de reparaciones de Bouzas, s/n",36208,986239955,www.davilasport.es,Club náutico deportivo. Dispón de mariña e amarres para embarcacións deportivas.,http://www.turismodevigo.org/sites/turismodevigo/files/lug328.jpg,42.2323485951243,-8.74438591710844,,gl-ES
8692,Real Club Náutico de Vigo,lugares,40,Ría de Vigo,Porto deportivo,"Paseo de las Avenidas, s/n",36202,986447441,www.rcnauticovigo.com,Club náutico deportivo. Dispón de mariña e amarres para embarcacións deportivas.,http://www.turismodevigo.org/sites/turismodevigo/files/lug329.jpg,42.2411500670359,-8.72510280080097,,gl-ES
8683,Auditorio Martín Códax del Conservatorio Superior de Música,lugares,37,Edificios singulares,Auditorio,"Manuel Olivé, 23",36203,986471144,http://conservatoriosuperiorvigo.com,Espazo habilitado para a realización de eventos públicos.,http://www.turismodevigo.org/sites/turismodevigo/files/lug320.jpg,42.2289400649774,-8.72331004116441,,gl-ES
8693,Club nautico de Canido,lugares,40,Ría de Vigo,Porto deportivo,Muelle de Canido S/N,36390,986492415,www.cmcanido.com,Club náutico deportivo. Dispón de amarres para embarcacións deportivas.,http://www.turismodevigo.org/sites/turismodevigo/files/lug330.jpg,42.1945877417659,-8.80104103676118,,gl-ES
8694,Igrexa de San Francisco,lugares,37,Edificios singulares,Arquitectura relixiosa,Camino de San Francisco,36202,,,"Antigo mosteiro do século XVII, que ten a súa orixe nunha desaparecida Ermida do século X. Despois da desamortización en 1887 é Casa da Caridade.",http://www.turismodevigo.org/sites/turismodevigo/files/lug331.jpg,42.2360817380351,-8.73089662653396,,gl-ES
8731,Ría de Vigo,lugares,41,Turismo urbano,,,,,,Un dos lugares máis visitados de Vigo,http://www.turismodevigo.org/sites/turismodevigo/files/lug375.jpg,42.266566,-8.705965,http://www.turismodevigo.org/sites/turismodevigo/files/lug375gl.mp3,gl-ES
8722,Estación de Autobuses de Vigo,lugares,35,Puntos de información turística,Estación de autobuses,"Avenida de Madrid, 57",36204,986373411,www.vigobus.com,Estación de autobuses de Vigo.,http://www.turismodevigo.org/sites/turismodevigo/files/lug366.jpg,42.2243132602791,-8.70924641539477,,gl-ES
8723,Colexio oficial de arquitectos de Galicia,lugares,37,Edificios singulares,,"Doctor Cadaval, 5",36202,986439633,www.coagvigo.es,Edificio de corte vangardista diseñado por Irisarri e Piñera.,http://www.turismodevigo.org/sites/turismodevigo/files/lug367.jpg,42.2373,-8.724768,http://www.turismodevigo.org/sites/turismodevigo/files/lug367gl.mp3,gl-ES
8724,Mercado da Pedra,lugares,41,Turismo urbano,,Calle de las Ostras s/n,36202,,,Un dos lugares máis visitados de Vigo,http://www.turismodevigo.org/sites/turismodevigo/files/lug368.jpg,42.23989,-8.726449,http://www.turismodevigo.org/sites/turismodevigo/files/lug368gl.mp3,gl-ES
8725,Praza da Constitución,lugares,41,Turismo urbano,,Praza da Constitución s/n,36202,,,Un dos lugares máis visitados de Vigo,http://www.turismodevigo.org/sites/turismodevigo/files/lug369.jpg,42.238511,-8.726054,http://www.turismodevigo.org/sites/turismodevigo/files/lug369gl.mp3,gl-ES
8726,Praza da Porta do Sol,lugares,41,Turismo urbano,,Praza da Porta do Sol s/n,36202,,,Un dos lugares máis visitados de Vigo,http://www.turismodevigo.org/sites/turismodevigo/files/lug370.jpg,42.238025,-8.724222,http://www.turismodevigo.org/sites/turismodevigo/files/lug370gl.mp3,gl-ES
8727,Rúa dos Cesteiros,lugares,41,Turismo urbano,,Rúa dos Cesteiros s/n,36202,,,Un dos lugares máis visitados de Vigo,http://www.turismodevigo.org/sites/turismodevigo/files/lug371.jpg,42.238882,-8.726348,http://www.turismodevigo.org/sites/turismodevigo/files/lug371gl.mp3,gl-ES
8728,Rúa do Príncipe,lugares,41,Turismo urbano,,Rúa do Príncipe s/n,36202,,,Un dos lugares máis visitados de Vigo. Ideal para facer compras,http://www.turismodevigo.org/sites/turismodevigo/files/lug372.jpg,42.237019,-8.723187,http://www.turismodevigo.org/sites/turismodevigo/files/lug372gl.mp3,gl-ES
8729,Churruca,lugares,41,Turismo urbano,,Rúa Churruca s/n,36202,,,Un dos lugares máis visitados de Vigo. Ideal para tomar un viño.,http://www.turismodevigo.org/sites/turismodevigo/files/lug373.jpg,42.235521,-8.7174,http://www.turismodevigo.org/sites/turismodevigo/files/lug373gl.mp3,gl-ES
8730,Areal,lugares,41,Turismo urbano,,Rúa Areal s/n,36202,,,Un dos lugares máis visitados de Vigo,http://www.turismodevigo.org/sites/turismodevigo/files/lug374.jpg,42.239109,-8.716955,http://www.turismodevigo.org/sites/turismodevigo/files/lug374gl.mp3,gl-ES
8686,Auditorio Zona Franca de Vigo,lugares,37,Edificios singulares,Auditorio,Área Portuaria de Bouzas s/n,36208,986269700,www.zonafrancavigo.com/zonafrancavigo_es/,Espazo habilitado para a realización de eventos públicos.,http://www.turismodevigo.org/sites/turismodevigo/files/lug323.jpg,42.2297450043917,-8.75565147137398,,gl-ES
8732,Illas Cíes,lugares,41,Turismo urbano,,,,,,Un dos lugares máis visitados de Vigo,,42.22993,-8.90417,http://www.turismodevigo.org/sites/turismodevigo/files/lug376gl.mp3,gl-ES
8721,Estación de FFCC,lugares,35,Puntos de información turística,Estación de tren,Areal s/n,36201,902432343,www.adif.es/es_ES/infraestructuras/estaciones/22308/informacion_000390.shtml,Estación de ferrocarril de Vigo.,http://www.turismodevigo.org/sites/turismodevigo/files/lug365.jpg,42.2391446195105,-8.71372655426546,,gl-ES
8719,Ponte de Rande,lugares,40,Ría de Vigo,Puente,Ría de Vigo,,,,"Foi proxectado polo enxeñeiro italiano Fabrizio de Miranda, o español Florencio del Pozo (que tamén se encargou da cimentación) e por Alfredo Passaro. É todo un símbolo para os vigueses.",http://www.turismodevigo.org/sites/turismodevigo/files/lug363.jpg,42.2877663861074,-8.66049986605693,,gl-ES
8707,Porto de pasaxeiros de Vigo,lugares,40,Ría de Vigo,Porto de pasaxeiros,Estación Marítima de Ría,36202,986224757,www.apvigo.com,Espazo loxístico destinado ao atraque de grandes cruceiros así como ao transporte de persoas en transbordador a distintos puntos da Ría.,http://www.turismodevigo.org/sites/turismodevigo/files/lug351.jpg,42.2412065150138,-8.72869939382685,,gl-ES
8708,CITEXVI,lugares,41,Turismo urbano,Cidade Tecnolóxica de Vigo,"Fonte das Abelleiras, s/n",36310,986120420,www.citexvi.es,Sociedade anónima de dereito privado centrada na promoción e impulso de actividades de I+D+ i.,http://www.turismodevigo.org/sites/turismodevigo/files/lug352.jpg,42.1670883461002,-8.68379882208743,,gl-ES
8709,Conservas Albo,lugares,41,Turismo urbano,Conserveira,"Jacinto Benavente, 41",36208,986213333,www.albo.es,Fabricación de conservas de pescado e marisco.,http://www.turismodevigo.org/sites/turismodevigo/files/lug353.jpg,42.2280202083677,-8.73683376872652,,gl-ES
8710,Palacio de Oriente,lugares,41,Turismo urbano,Conserveira,"Ctra. Vigo-Baiona, 127",36213,986207168,www.palaciodeoriente.net,Fabricación de conservas de pescado e marisco.,http://www.turismodevigo.org/sites/turismodevigo/files/lug354.jpg,42.1965605674658,-8.76310647195358,,gl-ES
8711,Paypay,lugares,41,Turismo urbano,Conserveira,"Tomás Alonso, 80",36208,986233500,www.paypay.es,Fabricación de conservas de pescado e marisco.,http://www.turismodevigo.org/sites/turismodevigo/files/lug355.jpg,42.224324622832,-8.74010374787148,,gl-ES
8712,Conservas Valcarcel - Vigilante,lugares,41,Turismo urbano,Conserveira,"Muelle de bouzas, s/n (reparaciones)",36208,986298488,www.valcarcel-sa.es,Fabricación de conservas de pescado e marisco.,http://www.turismodevigo.org/sites/turismodevigo/files/lug356.jpg,42.2309925452533,-8.74732721278576,,gl-ES
8713,"Orbe, S.A.",lugares,41,Turismo urbano,Conserveira,"Tomás Alonso, 106",36208,986208411,www.orbesa.com,Fabricación de conservas de pescado e marisco.,http://www.turismodevigo.org/sites/turismodevigo/files/lug357.jpg,42.2241203156335,-8.74273416663022,,gl-ES
8706,Porto pesquero de Vigo,lugares,40,Ría de Vigo,Porto pesqueiro,Puerto pesquero de Vigo,36202,986821508,www.apvigo.com,"Espazo loxístico destinado á descarga, transporte e almacenamento de peixe tanto fresco coma conxelado.",http://www.turismodevigo.org/sites/turismodevigo/files/lug350.jpg,42.238650033308,-8.73012432955699,,gl-ES
8718,Mercante,lugares,40,Ría de Vigo,Pecio,Proximidades de Cabo Home,,,,Trátase dun barco mercante que se afundiu nesta zona cargado de pratos de porcelana.,http://www.turismodevigo.org/sites/turismodevigo/files/lug362.jpg,42.244348656916,-8.86292153204935,,gl-ES
8717,Petrolero Polycomander,lugares,40,Ría de Vigo,Pecio,"Proximidades de la Isla de Monteagudo, Islas Cíes",,,,"O 5 de maio de 1970, o petroleiro noruegués Polycommander embarrancou nas Illas Cíes cando pretendía saír da ría de Vigo pola canle do Norte. Os 39 tripulantes conseguiron abandonar o barco e non houbo danos persoais.",http://www.turismodevigo.org/sites/turismodevigo/files/lug361.jpg,42.2375430424596,-8.89576837402149,,gl-ES
8716,Anforas romanas,lugares,40,Ría de Vigo,Pecio,Ría de Vigo,,,,"Ao parecer as ánforas achadas na zona pertencían a un buque romano de mediados do século I d.C. Tras 2000 anos xa non hai restos do buque pero si mostras do seu naufraxio, como as ánforas modelo Haltern 70 encontradas.",http://www.turismodevigo.org/sites/turismodevigo/files/lug360.jpg,42.227131267498,-8.77131526376522,,gl-ES
8715,Polígonos de bateas,lugares,40,Ría de Vigo,Acuicultura,Ría de Vigo,,,,Trátase de viveiros flotantes ou fixos destinados fundamentalmente ao cultivo de mexillón e ostra. Consisten nun armazón de madeira (normalmente eucalipto) do que colgan as cordas de cultivo que poden chegar a 1.000 por batea.,http://www.turismodevigo.org/sites/turismodevigo/files/lug359.jpg,42.2681383015103,-8.68526011435946,,gl-ES
8647,Monumento homenaje a los canteros,lugares,39,Monumentos,Escultura,Eduardo Cabello,36208,,,"A obra é unha peza complexa na que se poden observar ferramentas propias deste oficio, así como inscricións en íArxinaí -o idioma dos canteiros-.",http://www.turismodevigo.org/sites/turismodevigo/files/lug282.jpg,42.2278997111598,-8.75348131981263,,gl-ES
8648,Alpide,lugares,41,Turismo urbano,Centro de arte,"Avda. de Castrelos, 115",36210,986239646,,Conta cun espazo expositivo para calquera exposición e/ou evento ademais dun fondo de galería considerable representando uns 50 artistas pictóricos galegos de distintas épocas.,,42.2156171933039,-8.73261055964621,,gl-ES
8649,Alpide,lugares,41,Turismo urbano,Centro de arte,"López de Neira, 5",36202,986239646,,Conta cun espazo expositivo para calquera exposición e/ou evento ademais dun fondo de galería considerable representando uns 50 artistas pictóricos galegos de distintas épocas.,http://www.turismodevigo.org/sites/turismodevigo/files/lug285.jpg,42.2367960595359,-8.72416186503572,,gl-ES
8650,Igrexa de la Soledad,lugares,37,Edificios singulares,Arquitectura relixiosa,Atalaya del Monte de O Castro,36203,,,"Igrexa de estilo neoclasicista, inspirada na Igrexa parisiense da Madalena de Bartolomé Vignon. Foi promovida por Leopoldo Eijo-Garay (Bispo de Madrid-Alcalá).",http://www.turismodevigo.org/sites/turismodevigo/files/lug286.jpg,42.2290677797197,-8.72743893666551,,gl-ES
8646,Monumento a Rosalía de Castro,lugares,39,Monumentos,Escultura,Rosalía de Castro,36201,,,Trátase dunha obra de Armando Rodriguez formada por un grupo plástico coa escritora galega rodeada dos seus fillos aos que lles lee un libro.,http://www.turismodevigo.org/sites/turismodevigo/files/lug281.jpg,42.238093622183,-8.71803789317284,,gl-ES
8651,Igrexa de Nuestra Señora de Fátima,lugares,37,Edificios singulares,Arquitectura relixiosa,"Vía Norte, 19",36206,,,Destaca na fachada deste templo unha torre esvelta. Todo el está realizado en cantería. O interior destaca pola súa ampla capacidade -preto de 500 persoas sentadas- e o seu retablo.,http://www.turismodevigo.org/sites/turismodevigo/files/lug287.jpg,42.2349196113619,-8.70778305465385,,gl-ES
8652,Igrexa de Alcabre,lugares,37,Edificios singulares,Arquitectura relixiosa,Avenida Atlántica,36202,,,"Igrexa de tres naves, realizada en granito. Foi deseñada polo arquitecto Desiderio Pernas no ano 1997.",http://www.turismodevigo.org/sites/turismodevigo/files/lug288.jpg,42.221375571677,-8.76485171983614,,gl-ES
8653,Igrexa de Bouzas,lugares,37,Edificios singulares,Arquitectura relixiosa,"Eduardo Cabello, 61",36208,,,"Templo de base rectangular e ábsida en semicírculo. No exterior podemos apreciar o escudo de armas dos Peña e os Correa, sendo este último -o capitán Álvaro Correa- quen a mandou construír en 1596.",http://www.turismodevigo.org/sites/turismodevigo/files/lug289.jpg,42.2264222293407,-8.75324474070383,,gl-ES
8654,Igrexa de Santa Marína de Cabral,lugares,37,Edificios singulares,Arquitectura relixiosa,Parroquia de Cabral,36218,,,"O adro da Igrexa é hoxe en día unha dos centros de reunión da parroquia, mostra diso é que o palco da música se situou nesta zona.",http://www.turismodevigo.org/sites/turismodevigo/files/lug290.jpg,42.2232740248728,-8.65673266263812,,gl-ES
8655,Igrexa de San Cristobal de Candeán,lugares,37,Edificios singulares,Arquitectura relixiosa,"Camino de la Goleta, 1",36217,,,"No interior consérvanse pequenos talles de gran valor como a de San Cristóbal, de principios do s. XVIII e de estilo barroco, ou a de San Benito.",http://www.turismodevigo.org/sites/turismodevigo/files/lug291.jpg,42.2418578743122,-8.66516336412958,,gl-ES
8645,Monumento a Mendez Núñez,lugares,39,Monumentos,Escultura,Plaza de Compostela,36201,,,"O pedestal foi deseñado por Jenaro de la Fuente Domínguez e a escultura é de Agustín Querol, nela represéntase ao almirante cun xesto airoso e de mando cuns prismáticos e un sabre nunha man e coa outra estendida.",http://www.turismodevigo.org/sites/turismodevigo/files/lug280.jpg,42.2392421644792,-8.72364420254209,,gl-ES
8644,Monumento a Martín Codax,lugares,39,Monumentos,Escultura,Monte do Castro,36203,,,"Está composto por unha pedra do mar situada no medio dun estanque; mar ao que cantou o Poeta. Podemos observar, sobre a pedra, unha placa de bronce que di: íA cidade de Vigo ao seu cantor Martín Códax, trobador e Xograr do século XVIII""",http://www.turismodevigo.org/sites/turismodevigo/files/lug279.jpg,42.2302668244403,-8.72734555311601,,gl-ES
8633,Monumento a la mujer,lugares,39,Monumentos,Escultura,Jardines de las Avenidas,36201,,,"Monumento situado en Las Avenidas, diante do Real Club Náutico. Obra do escultor vigués Xesús Valverde Alonso. Foi instalado en 1992 como unha homenaxe de Vigo á muller e consta de dúas figuras en bronce sobre un pedestal de granito.",http://www.turismodevigo.org/sites/turismodevigo/files/lug268.jpg,42.2407458315668,-8.7229368735407,,gl-ES
8634,Monumento a los marineros muertos en el mar,lugares,39,Monumentos,Escultura,Plaza del Puerto Pesquero,36202,,,"Obra escultórica de Cándido Pazos López, inaugurada en xuño de 2006. Trátase dun bloque de pedra morena -duns 8m de alto por 1í20 m de ancho- esculpida en espiral, cun rosetón de xade, que simula unha especie de onda.",http://www.turismodevigo.org/sites/turismodevigo/files/lug269.jpg,42.2363260863045,-8.73144713472506,,gl-ES
8636,Monumento al emigrante,lugares,39,Monumentos,Escultura,Avenida de Castelao,36208,,,"O monumento, en granito, está formado por un plinto no que se apoia un pedestal; sobre el levántase un grupo composto por pai, nai e fillo que se abrazan nunha emotiva escena de reencontro.",http://www.turismodevigo.org/sites/turismodevigo/files/lug271.jpg,42.2207029340442,-8.73391082737515,,gl-ES
8637,Monumento al empuje vigués,lugares,39,Monumentos,Escultura,Monte O Castro,36202,,,"Monumento en pedra, obra de Camilo Nogueira inaugurada en 1966 e situada no parque do Castro, representa unha barca que avanza na que tres atletas levantan o escudo de Vigo simbolizando o pulo e a unión.",http://www.turismodevigo.org/sites/turismodevigo/files/lug272.jpg,42.2317347939045,-8.72646354186178,,gl-ES
8638,Monumento al Herrero,lugares,39,Monumentos,Escultura,Plaza Eugenio Fradrique,36208,,,"Consiste nun obreiro traballando con xesto de martelar sobre unha peza. Está composto por diferentes pezas de ferro, ensambladas unha a unha íin situí polo escultor, Guillermo Steinbrüggen. Inaugurouse en 1970.",http://www.turismodevigo.org/sites/turismodevigo/files/lug273.jpg,42.2245480874109,-8.73648630760391,,gl-ES
8635,Monumento a Laxeiro,lugares,39,Monumentos,Escultura,Policarpo Sanz esquina Reconquista,36202,,,"Obra de Xurxo Vázquez situada na confluencia das rúas Policarpo Sánz e Reconquista, inaugurouse en 1997. Trátase dun busto de Don José Otero Abeledo íLaxeiroí, pintor universal vigués.",http://www.turismodevigo.org/sites/turismodevigo/files/lug270.jpg,42.2377020891736,-8.72303174824743,,gl-ES
8640,Monumento a los héroes de la Reconquista,lugares,39,Monumentos,Escultura,Plaza de la Independencia,36211,,,"Preside a Praza da Independencia, foi levantado con motivo do primeiro centenario da Reconquista de Vigo. É obra do escultor Julio González Pola.",http://www.turismodevigo.org/sites/turismodevigo/files/lug275.jpg,42.2238477213346,-8.73004545803649,,gl-ES
8641,"Monumento a los cantores, poetas y trobadores",lugares,39,Monumentos,Escultura,Paseo de Alfonso XII,36202,,,"Monumento en bronce de cor pompeia que representa unha ninfa sentada sobre un dragón. A figura alada aséntase sobre unha columna de granito pulido, de 4 metros de alto e 80 centímetros de ancho.",http://www.turismodevigo.org/sites/turismodevigo/files/lug276.jpg,42.236695526578,-8.72816888060358,,gl-ES
8642,Monumento al pescador,lugares,39,Monumentos,Escultura,Calle de San Francisco,36202,,,"Sobre un alto pedestal de dous corpos, elévase a figura dun mariñeiro vestido coa roupa de augas que sostén un remo na súa man esquerda, na fronte, unha muller cun fillo e unha ípatelaí, espera pacientemente ou mostra o froito da pesca.",http://www.turismodevigo.org/sites/turismodevigo/files/lug277.jpg,42.2366831438376,-8.72971658900318,,gl-ES
8643,Monumeto al trabajo,lugares,39,Monumentos,Escultura,Gran Vía,36203,,,"Grupo escultórico de Ramón Conde de 1991, unha das figuras claves da arte galega do s.XX. Situado ao comezo da Gran Vía, está formado por sete mariñeiros tirando dunha rede que sae dun mar representado por un estanque.",http://www.turismodevigo.org/sites/turismodevigo/files/lug278.jpg,42.2341300319509,-8.71674505059275,,gl-ES
8656,Igrexa de San Andrés de Comesaña,lugares,37,Edificios singulares,Arquitectura relixiosa,Carretera Matamá-Pazó,36213,,,"O máis destacable é, en si, o conxunto parroquial que está formado pola Igrexa, o campo da festa que a rodea, un palco, a casa parroquial e, algo máis afastada, a Casa Reitoral.",http://www.turismodevigo.org/sites/turismodevigo/files/lug292.jpg,42.1994741721369,-8.7538824107773,,gl-ES
8681,Fundación Pedro Barrié de la Maza,lugares,37,Edificios singulares,Auditorio,"Policarpo Sanz, 31",36203,986110220,www.fundacionbarrie.org/,"A Fundación Pedro Barrié de la Maza é unha entidade sen ánimo de lucro, de carácter privado, dedicada a promover o desenvolvemento de Galicia dende unha perspectiva global.",http://www.turismodevigo.org/sites/turismodevigo/files/lug317.jpg,42.2378279820797,-8.72096806541099,,gl-ES
8671,Teatro cine Fraga,lugares,37,Edificios singulares,Teatro,"Uruguay, 3-5",36201,,,"Foi deseñado para albergar un teatro e un cine de 1758 localidades, unha sala de festas, un salón de té e oficinas de aluguer.",http://www.turismodevigo.org/sites/turismodevigo/files/lug307.jpg,42.2368496611794,-8.7197763308682,,gl-ES
8672,Teatro García Barbón,lugares,37,Edificios singulares,Teatro,"Policarpo Sanz, 13",36203,,,"É unha das obras arquitectónicas máis emblemáticas da cidade. O actual edificio é consecuencia da reconstrución do antigo teatro Rosalía de Castro, incendiado en 1910 cando se celebraba un baile de carnaval.",http://www.turismodevigo.org/sites/turismodevigo/files/lug308.jpg,42.238057340574,-8.7234081251284,,gl-ES
8673,Salgueiro García Barbón,lugares,37,Edificios singulares,Arquitectura civil,Puerta del Sol,36203,,,"Edificio racionalista del arquitecto Romualdo de Madariaga, realizado en 1934 y promovido por las irmás Elena e Práxedes Salgueiro García-Barbón.",http://www.turismodevigo.org/sites/turismodevigo/files/lug309.jpg,42.2376957033825,-8.72457969850464,,gl-ES
8674,Instituto Santa Irene,lugares,37,Edificios singulares,Arquitectura civil,"Plaza de América, 7",36210,986210435,www.edu.xunta.es/centros/iessantairene/,"Trátase dunha construción con planta en forma de E, buscando unha maior iluminación e ventilación do interior.  A fachada principal segue un esquema ecléctico.",http://www.turismodevigo.org/sites/turismodevigo/files/lug310.jpg,42.2199270979685,-8.73184055509303,,gl-ES
8675,Edificio sede social Caixanova,lugares,37,Edificios singulares,Arquitectura civil,"Policarpo Sanz, 24",36201,,,"Na composición das fachadas, observamos unha retícula ordenada de vans que carecen de ornamentación. En cada planta, nos chafráns colocáronse balcóns redondeados, seguindo un esquema moi utilizado nese período.",http://www.turismodevigo.org/sites/turismodevigo/files/lug311.jpg,42.2380478602696,-8.72019562436622,,gl-ES
8676,Vigo Convention Bureau,lugares,37,Edificios singulares,Centro de congresos,"San vicente, 3",36204,986487118,www.vigoconventionbureau.com,"A Fundación Vigo Convention Bureau ten como obxectivo principal a promoción da cidade de Vigo como sede para a celebración de congresos, incentivos e todo tipo de eventos que atraian visitantes e turismo de negocio á cidade.",http://www.turismodevigo.org/sites/turismodevigo/files/lug312.jpg,42.2315389647814,-8.71241663342456,,gl-ES
8678,Auditorio de Castrelos,lugares,41,Turismo urbano,Auditorio o aire libre,Parque de Castrelos,36213,,,Espazo aberto a xeito de anfiteatro no corazón do parque de Castrelos ideal para a celebración de concertos e outros eventos ao aire libre.,http://www.turismodevigo.org/sites/turismodevigo/files/lug314.jpg,42.2139063201267,-8.7300628637897,,gl-ES
8679,Ayuntamiento de Vigo,lugares,37,Edificios singulares,Edificio público,"Praza do Rei, s/n",36202,986810100,www.hoxe.vigo.org,Sede da casa do concello da cidade de Vigo.,http://www.turismodevigo.org/sites/turismodevigo/files/lug315.jpg,42.2364146957037,-8.72649447517727,,gl-ES
8680,Auditorio del Ayuntamiento de Vigo,lugares,37,Edificios singulares,Centro de congresos,"Praza do Rei, s/n",36202,986810100,www.hoxe.vigo.org,Espazo habilitado para a realización de eventos públicos.,http://www.turismodevigo.org/sites/turismodevigo/files/lug316.jpg,42.2364332439288,-8.72677818586211,,gl-ES
8682,Sala de Congresos (auditorio) de la Ciudad Universitaria de Vigo,lugares,37,Edificios singulares,Auditorio,Campus Universidade de Vigo,36310,986813639,www.uvigo.es/uvigo_es/administracion/extension/,Espazo habilitado para a realización de eventos públicos.,http://www.turismodevigo.org/sites/turismodevigo/files/lug318.jpg,42.169749872297,-8.68545128291619,,gl-ES
8670,Biblioteca de la Facultad de Ciencias jurídicas,lugares,37,Edificios singulares,Biblioteca,Campus Universidade de Vigo,36310,986812658,www.uvigo.es/uvigo_es/Centros/vigo/lagoas_marcosende/fac_ciencias_xuridicas.html,Sala de lectura e servizo de préstamo de gran demanda e crecente utilización.,http://www.turismodevigo.org/sites/turismodevigo/files/lug306.jpg,42.1676576455584,-8.68285424724108,,gl-ES
8669,Biblioteca de la E.T.S. de Ingenieros de Telecomunicaciones,lugares,37,Edificios singulares,Biblioteca,Campus Universidade de Vigo,36310,986812105,www.teleco.uvigo.es/,Sala de lectura e servizo de préstamo de gran demanda e crecente utilización.,http://www.turismodevigo.org/sites/turismodevigo/files/lug305.jpg,42.1696931749901,-8.68825124573733,,gl-ES
8658,Igrexa de la Inmaculada Concepción,lugares,37,Edificios singulares,Arquitectura relixiosa,Calle del Cronista J. Espinosa,36205,,,"Esta Igrexa, situada no popular barrio do Calvario, segue unha liña arquitectónica inspirada en Le Corbusier.",http://www.turismodevigo.org/sites/turismodevigo/files/lug294.jpg,42.2322826043943,-8.7003524420609,,gl-ES
8657,Igrexa de Freixeiro,lugares,37,Edificios singulares,Arquitectura relixiosa,Parroquia de O Freixeiro,36210,,,Igrexa dunha soa nave de planta rectangular. O presbiterio ten bóveda de pedra; os muros que sosteñen esta presentan unha serie de sepulcros.,http://www.turismodevigo.org/sites/turismodevigo/files/lug293.jpg,42.2176868684656,-8.7274456961174,,gl-ES
8659,Biblioteca Caixanova. Calvario,lugares,37,Edificios singulares,Biblioteca,"Calle Portela 6, 1º",36205,986252435,,Sala de lectura e servizo de préstamo de gran demanda e crecente utilización.,http://www.turismodevigo.org/sites/turismodevigo/files/lug295.jpg,42.2307559884331,-8.70172942221668,,gl-ES
8660,Biblioteca Caixanova. Travesas,lugares,37,Edificios singulares,Biblioteca,Plaza de América 3- entresuelo,36208,986231518,,Sala de lectura e servizo de préstamo de gran demanda e crecente utilización.,http://www.turismodevigo.org/sites/turismodevigo/files/lug296.jpg,42.2208941029241,-8.73344806069799,,gl-ES
8661,Biblioteca Central,lugares,37,Edificios singulares,Biblioteca,"Joaquín Yánez, 6",36202,986229074,http://rbgalicia.xunta.es/vigo/,Sala de lectura e servizo de préstamo de gran demanda e crecente utilización.,http://www.turismodevigo.org/sites/turismodevigo/files/lug297.jpg,42.238679252679,-8.72534375397711,,gl-ES
8662,Biblioteca de la Cámara de Comercio de Vigo,lugares,37,Edificios singulares,Biblioteca,"República Argentina, 18",36201,986446343,http://www.camaravigo.com,Sala de lectura e servizo de préstamo de gran demanda e crecente utilización.,http://www.turismodevigo.org/sites/turismodevigo/files/lug298.jpg,42.2365969972409,-8.71877215510236,,gl-ES
8663,Biblioteca de la Fundación,lugares,37,Edificios singulares,Biblioteca,"Plaza de la Princesa, 2",36202,986226459,,Sala de lectura e servizo de préstamo de gran demanda e crecente utilización.,http://www.turismodevigo.org/sites/turismodevigo/files/lug299.jpg,42.2383160280706,-8.7256823195269,,gl-ES
8664,Biblioteca Centro Cultural Caixanova,lugares,37,Edificios singulares,Biblioteca,"Policarpo Sánz, 13",36202,986447369,,Sala de lectura e servizo de préstamo de gran demanda e crecente utilización.,http://www.turismodevigo.org/sites/turismodevigo/files/lug300.jpg,42.2378912174353,-8.72342661117205,,gl-ES
8665,Biblioteca del Centro Oceanográfico de Vigo,lugares,37,Edificios singulares,Biblioteca,Subida a Radio Faro 50-52,36390,986492111,www.ieo.es/biblioteca.html,Sala de lectura e servizo de préstamo de gran demanda e crecente utilización.,http://www.turismodevigo.org/sites/turismodevigo/files/lug301.jpg,42.1839418974653,-8.81311310160395,,gl-ES
8666,Biblioteca del Instituto de Investigaciones Marinas,lugares,37,Edificios singulares,Biblioteca,"Eduardo Cabello, 6",36208,986214454,www.iim.csic.es/,Sala de lectura e servizo de préstamo de gran demanda e crecente utilización.,http://www.turismodevigo.org/sites/turismodevigo/files/lug302.jpg,42.2258258094774,-8.75221907436888,,gl-ES
8667,"Biblioteca del Museo Etnográfico, Fundación Liste",lugares,37,Edificios singulares,Biblioteca,"Pastora, 22",36210,986244698,www.museoliste.org/index.php?pag=fundacion,Sala de lectura e servizo de préstamo de gran demanda e crecente utilización.,http://www.turismodevigo.org/sites/turismodevigo/files/lug303.jpg,42.2179067345851,-8.73104669745821,,gl-ES
8668,Biblioteca de la Facultad de Ciencias del Mar y Biología,lugares,37,Edificios singulares,Biblioteca,Campus Universidade de Vigo,36310,986812552,www.facultadeccdomar.es/,Sala de lectura e servizo de préstamo de gran demanda e crecente utilización.,http://www.turismodevigo.org/sites/turismodevigo/files/lug304.jpg,42.1677211171346,-8.68513460688203,,gl-ES
8603,Faro de Bicos,lugares,36,Cies,Faro,Isla del Medio o del Faro - Islas Cíes,36211,,,O faro funciona con enerxía solar e xunto a el empeza a zona de reserva de aves mariñas. As vistas de acantilados dende a súa situación fan que a súa visita pague a pena. Está datado en 1918.,http://www.turismodevigo.org/sites/turismodevigo/files/lug238.jpg,42.19156442657,-8.890856040937,,gl-ES
8602,Faro de Cíes,lugares,36,Cies,Faro,"Illa do Faro, Islas Cíes",36211,,,"Sitúase no punto máis alto da illa do Medio, foi construído entre 1851 e 1853 e está a 178 metros de altura sobre o nivel do mar.",http://www.turismodevigo.org/sites/turismodevigo/files/lug237.jpg,42.2141914894239,-8.91480704742764,,gl-ES
8601,Faro de A Porta,lugares,36,Cies,Faro,"Illa do Faro, Islas Cíes",36211,,,O faro funciona con enerxía solar e xunto a el empeza a zona de reserva de aves mariñas. As vistas de acantilados dende a súa situación fan que a súa visita pague a pena. Está datado en 1918.,http://www.turismodevigo.org/sites/turismodevigo/files/lug236.jpg,42.2122167379365,-8.91289195374303,,gl-ES
8604,Faro do Peito ou Monte Agudo,lugares,36,Cies,Faro,Illa de Monteagudo o Isla Norte - Islas Cíes,36211,,,"Este faro, datado en 1904, serve para marcar a entrada norte da Ría de Vigo xunto cos faros de Cabo Home na Costa do Morrazo. Encóntrase no límite da illa Norte.",http://www.turismodevigo.org/sites/turismodevigo/files/lug239.jpg,42.2435449662904,-8.90313444061437,,gl-ES
8600,O Baluarte,lugares,44,Praias,Praias,,36212,,,"Praia de area fina, aberta ao océano e cunha ocupación media na época de verán. A súa lonxitude aproximada é de 120 metros.",http://www.turismodevigo.org/sites/turismodevigo/files/lug235.jpg,42.2049814680749,-8.77851888587136,,gl-ES
8587,Mende,lugares,44,Praias,Praias,,36216,,,"Praia de area fina, resgardada do vento e cunha ocupación media na época de verán. A súa lonxitude aproximada é de 90 metros.",http://www.turismodevigo.org/sites/turismodevigo/files/lug222.jpg,42.2632641196779,-8.68094457281179,,gl-ES
8605,Jardines de Elduayen,lugares,42,Xardíns urbanos,Parque,Calle Montero Ríos,36201,,,"Estes xardíns eran, orixinalmente, de estilo inglés pero as sucesivas remodelacións ás que foron sometidos modificaron a súa característica inicial. Nos xardíns encóntrase a escultura de Elduayen realizada por Agustín Querol.",http://www.turismodevigo.org/sites/turismodevigo/files/lug240.jpg,42.2408126035468,-8.72236639593876,,gl-ES
8606,Teis-A Madroa,lugares,43,Parques forestais,Parque,Teis,36217,,,"Trátase dun grande espazo verde situado nas proximidades da cidade de Vigo. Nos 40000 metros cadrados de superficie que ocupa encontraremos: bar, fonte, miradoiro, mesas e barbacoas. É posible acceder en bus urbano.",http://www.turismodevigo.org/sites/turismodevigo/files/lug241.jpg,42.2484658385024,-8.66510623773347,,gl-ES
8607,Beade,lugares,43,Parques forestais,Parque,Beade,36212,,,"Trátase dun grande espazo verde situado nas proximidades da cidade de Vigo. Nos 93000 metros cadrados de superficie que ocupa encontraremos: bar, restaurante, fonte, miradoiro, teléfono público e barbacoas.",http://www.turismodevigo.org/sites/turismodevigo/files/lug242.jpg,42.1757600108278,-8.6906895026165,,gl-ES
8608,Zamáns,lugares,43,Parques forestais,Parque,Zamáns,36310,,,"Trátase dun grande espazo verde situado nas proximidades da cidade de Vigo. Nos 50000 metros cadrados de superficie que ocupa encontraremos: refuxio, fonte, monumento, mesas e barbacoas.",http://www.turismodevigo.org/sites/turismodevigo/files/lug243.jpg,42.1525871661828,-8.68106464853863,,gl-ES
8599,Espedrigada,lugares,44,Praias,Praias,,36212,,,Praia de area fina e resgardada cunha ocupación media na época de verán. A súa lonxitude aproximada é de 75 metros.,http://www.turismodevigo.org/sites/turismodevigo/files/lug234.jpg,42.2194375230757,-8.77704552053948,,gl-ES
8598,A Sobreira,lugares,44,Praias,Praias,,36390,,,"Praia de area fina, resgardada do vento e cunha ocupación media na época de verán. A súa lonxitude aproximada é de 200 metros.",http://www.turismodevigo.org/sites/turismodevigo/files/lug233.jpg,42.1900904979595,-8.80888061101316,,gl-ES
8588,Espiñeiro,lugares,44,Praias,Praias,O Espiñeiro,36207,,,"Praia de area fina, resgardada do vento e cunha ocupación baixa na época de verán. A súa lonxitude aproximada é de 35 metros.",http://www.turismodevigo.org/sites/turismodevigo/files/lug223.jpg,42.2535860581348,-8.70502424222812,,gl-ES
8589,Fontán ou Muiños,lugares,44,Praias,Praias,,36392,,,"Praia de area fina, resgardada do vento e cunha ocupación baixa na época de verán. A súa lonxitude aproximada é de 50 metros.",http://www.turismodevigo.org/sites/turismodevigo/files/lug224.jpg,42.1653152704122,-8.81765892120421,,gl-ES
8590,Playa de San Martiño,lugares,36,Cies,Praias,"Illa de San Martiño, Islas Cíes",36211,,,Praia aberta cunha ocupación alta na época de verán. A súa lonxitude aproximada é de 500 metros e está galardoada coa bandeira azul.,http://www.turismodevigo.org/sites/turismodevigo/files/lug225.jpg,42.2013813991292,-8.904989325854,,gl-ES
8591,Nosa Señora,lugares,36,Cies,Praias,"Illa do Faro, Islas Cíes",36211,,,"Praia de area fina, resgardada do vento e cunha ocupación media na época de verán. A súa lonxitude aproximada é de 130 metros.",http://www.turismodevigo.org/sites/turismodevigo/files/lug226.jpg,42.2159549819256,-8.90303979922385,,gl-ES
8593,Areiña,lugares,36,Cies,Praias,"Illa do Faro, Islas Cíes",36211,,,"Praia de area fina, resgardada do vento e cunha ocupación baixa na época de verán. A súa lonxitude aproximada é de 40 metros.",http://www.turismodevigo.org/sites/turismodevigo/files/lug228.jpg,42.2270671183612,-8.89761741239897,,gl-ES
8594,Area Grande do Mixueiro,lugares,36,Cies,Praias,"Illa de Monteagudo, Islas Cíes",36211,,,"Praia de area fina, resgardada do vento e cunha ocupación media na época de verán. A súa lonxitude aproximada é de 30 metros.",http://www.turismodevigo.org/sites/turismodevigo/files/lug229.jpg,42.2272856804418,-8.89660195990717,,gl-ES
8595,Playa Figueiras,lugares,36,Cies,Praias,"Illa de San Martiño, Islas Cíes",36211,,,Praia aberta cunha ocupación alta na época de verán. A súa lonxitude aproximada é de 300 metros e está galardoada coa bandeira azul.,http://www.turismodevigo.org/sites/turismodevigo/files/lug230.jpg,42.2303072518779,-8.90090679216474,,gl-ES
8596,Area de Freixeiros,lugares,36,Cies,Praias,"Illa do Faro, Islas Cíes",36211,,,"Praia de area fina, resgardada do vento e cunha ocupación media na época de verán. A súa lonxitude aproximada é de 270 metros.",,42.2289335893848,-8.89867566474834,,gl-ES
8597,Playa das Margaritas,lugares,36,Cies,Praias,"Illa do Faro, Islas Cíes",36211,,,"Praia de area fina, resgardada do vento e cunha ocupación media na época de verán. A súa lonxitude aproximada é de 40 metros.",http://www.turismodevigo.org/sites/turismodevigo/files/lug232.jpg,42.2370328651189,-8.90119976041642,,gl-ES
8609,Bembrive,lugares,43,Parques forestais,Parque,Bembrive,36313,,,"Trátase dun grande espazo verde situado nas proximidades da cidade de Vigo. Nos 99710 metros cadrados de superficie que ocupa encontraremos: bar, fonte, miradoiro, servizos sanitarios, mesas e barbacoas.",http://www.turismodevigo.org/sites/turismodevigo/files/lug244.jpg,42.2030862468226,-8.66739815381071,,gl-ES
8610,Bandeira - Cabral,lugares,43,Parques forestais,Parque,Cabral,36218,,,"Trátase dun grande espazo verde situado nas proximidades da cidade de Vigo. Nos 99700 metros cadrados de superficie que ocupa encontraremos: bar, restaurante, fonte, miradoiro, servizos sanitarios, teléfono público e barbacoas.",http://www.turismodevigo.org/sites/turismodevigo/files/lug245.jpg,42.2389238774838,-8.63552687852401,,gl-ES
8623,Cristo de la Victoria,lugares,39,Monumentos,Talla relixiosa,Plaza de la Colegiata,36202,986441667,www.cristodevigo.es,"Durante case 200 anos o Cristo da Vitoria espertou paixón entre os vigueses porque para eles, esta imaxe é algo máis que a representación de Xesucristo Crucificado.",,42.23925962889,-8.72593478853809,,gl-ES
8624,El Nadador,lugares,39,Monumentos,Escultura,Rúa das Avendias,36202,,,"Obra de Francisco Leiro situada no ámbito marítimo, é unha obra de bronce con nadadores que se mergullan no cemento da rúa e outras pezas máis abstractas.",http://www.turismodevigo.org/sites/turismodevigo/files/lug259.jpg,42.2406549101768,-8.72612391461795,,gl-ES
8625,El Rapto de Europa,lugares,39,Monumentos,Escultura,Avda. de Samil,36212,,,"Esta figura simboliza o Rapto de Europa; aparece o deus Zeus transformado en touro e sobre el a deusa da mitoloxía grega, Europa, coa bandeira da UE. Ten 7 metros de alto e pesa 1500 kg.",http://www.turismodevigo.org/sites/turismodevigo/files/lug260.jpg,42.2113098456578,-8.77428884345071,,gl-ES
8586,A Punta,lugares,44,Praias,Praias,,36207,,,Praia duns 200 metros de lonxitude galardoada con bandeira azul. É un areal resgardado ideal para o baño.,http://www.turismodevigo.org/sites/turismodevigo/files/lug221.jpg,42.2599407888135,-8.69706639557289,,gl-ES
8626,El Sireno,lugares,39,Monumentos,Escultura,Porta do Sol,36203,,,"Obra do escultor Francisco Leiro, situada na Puerta do Sol. Está realizada en aluminio sobre columnas de granito negro pulido. Instalado en 1991, a figura representa un personaxe imaxinario híbrido de peixe e home.",http://www.turismodevigo.org/sites/turismodevigo/files/lug261.jpg,42.2377922371969,-8.72492835237328,,gl-ES
8627,La Farola,lugares,39,Monumentos,Escultura,Calle Urzaiz esquina Calle Príncipe,36202,,,"Obra de Jenaro de la Fuente, situada na confluencia entre as rúas Príncipe, Urzáiz e Colón, data do século XX. Trasladada a Bouzas en 1972 pola celebración en Vigo da I Feira Mundial de Pesca. Actualmente encóntrase no seu lugar orixinal.",http://www.turismodevigo.org/sites/turismodevigo/files/lug262.jpg,42.2359751013972,-8.72024712297229,,gl-ES
8628,La Puerta del Atlántico,lugares,39,Monumentos,Escultura,Plaza América,36208,,,Este monumento é unha homenaxe aos emigrantes galegos que saíron do noso Porto cara a América. Realizado por Silverio Rivas. Está composto por tres elementos complementarios por proceder os tres dun mesmo bloque granítico.,http://www.turismodevigo.org/sites/turismodevigo/files/lug263.jpg,42.220622993332,-8.73270617611111,,gl-ES
8629,Los Caballos,lugares,39,Monumentos,Escultura,Plaza de España,36203,,,"Grupo escultórico en bronce de Juan José Oliveira que preside a Praza de España, representa un grupo de 5 cabalos ascendendo por unha fervenza. O conxunto pesa 40 toneladas e alcanza os 18 metros. Complétase cun estanque de 10 m. de diámetro.",http://www.turismodevigo.org/sites/turismodevigo/files/lug264.jpg,42.2293336577472,-8.7194393848106,,gl-ES
8630,Monumento a Curros Enríquez,lugares,39,Monumentos,Escultura,Monte do Castro,36203,,,"Trátase dun busto do escritor sobre unha base trapezoidal historiada e situada, á súa vez, sobre unha base graduada; na fronte pódese ver un baixorrelevo dunha musa galega da poesía.",http://www.turismodevigo.org/sites/turismodevigo/files/lug265.jpg,42.2328429056591,-8.72626162231902,,gl-ES
8631,Monumento a Elduayen,lugares,39,Monumentos,Escultura,Jardines de las Avenidas,36201,,,"Situado nos xardíns de Las Avenidas, foi inaugurado en 1896. O pedestal, obra de Jenaro de la Fuente, é de estilo neogrego e consta dun zócolo cuadrangular graduado con catro dados nos vértices.",http://www.turismodevigo.org/sites/turismodevigo/files/lug266.jpg,42.2407695519881,-8.72190735798718,,gl-ES
8622,Fundación Sales,lugares,38,Museos,Fundación,"Avda. de Europa, 52",36212,986240882,www.fundacionsales.org,"Un espazo íntimo, romántico, exótico e vital. Un refuxio para o corpo e o espírito de imprescindible visita.",http://www.turismodevigo.org/sites/turismodevigo/files/lug257.jpg,42.2152064689806,-8.76319669812673,,gl-ES
8621,Fundación Pedro Barrié de la Maza,lugares,38,Museos,Fundación,"Policarpo Sanz, 31",36203,986110220,,"A Fundación Pedro Barrié de la Maza é unha entidade sen ánimo de lucro, de carácter privado, dedicada a promover o desenvolvemento de Galicia dende unha perspectiva global.",http://www.turismodevigo.org/sites/turismodevigo/files/lug256.jpg,42.2378264247316,-8.72091580258333,,gl-ES
8611,San Andrés de Comesaña,lugares,43,Parques forestais,Parque,San Andrés de Comesaña,36213,,,Trátase dun grande espazo verde situado nas proximidades da cidade de Vigo. Ocupa unha extensión de 29200 metros cadrados.,http://www.turismodevigo.org/sites/turismodevigo/files/lug246.jpg,42.1881471298145,-8.75298935320139,,gl-ES
8612,Vixiador - Candeán,lugares,43,Parques forestais,Parque,Monte Pequeno,36217,,,"Conta cunha extensión de dezaoito hectáreas e media polas que se reparten toda a variedade de especies arbóreas, arbustivas e faunísticas enunciadas ofrecendo ao visitante un espazo axeitado para os seus momentos de ocio e esparexemento.",http://www.turismodevigo.org/sites/turismodevigo/files/lug247.jpg,42.2524396042282,-8.65085620149623,,gl-ES
8613,O Castro de Vigo,lugares,38,Museos,Xacemento,Monte O Castro,36202,,,íO Castro de Vigo. A Orixe da cidadeí é un depósito arqueolóxico de 1.800 metros cadrados que inclúe a reconstrución de tres edificacións castrexas dun dos poboados máis extensos e evolucionados de Galicia.,http://www.turismodevigo.org/sites/turismodevigo/files/lug248.jpg,42.2317763288229,-8.72789663951502,,gl-ES
8614,Centro arqueológico Salinae,lugares,38,Museos,Xacemento,"Rosalía de Castro, 21",36201,986247691,www.museodomar.com/salinae/,A exposición propón un percorrido para coñecer a historia da única salina mariña por evaporación solar conservada e musealizada de todo o Imperio Romano.,http://www.turismodevigo.org/sites/turismodevigo/files/lug249.jpg,42.2383185372312,-8.71744364020964,,gl-ES
8616,Casa Galega da Cultura,lugares,38,Museos,Centro de estudio,Plaza de la Princesa,36202,986226459,,Centro no que se concitan a programación de actividades artísticas e literarias coa existencia dun fondo bibliográfico e museográfico altamente cualificado no que se refire ao estudo da realidade histórica e actual de Galicia.,http://www.turismodevigo.org/sites/turismodevigo/files/lug251.jpg,42.2381550515181,-8.72605800374697,,gl-ES
8617,Archivo fotográfico Pacheco,lugares,38,Museos,Arquivo,"Policarpo Sanz, 15",36202,986435121,,O arquivo Pacheco representa a máis completa colección de recursos fotográficos de titularidade pública sobre a cidade de Vigo.,http://www.turismodevigo.org/sites/turismodevigo/files/lug252.jpg,42.2377800440228,-8.72294674960066,,gl-ES
8618,Centro Cultural Novagalicia,lugares,38,Museos,Centro Cultural,"Policarpo Sanz, 13",36203,986828200,www.servinova.com,"O 22 de marzo de 1984 se inaugúrase o Centro Cultural Caixanova, converténdose nun dos proxectos culturais máis importantes realizados por unha entidade bancaria en España.",http://www.turismodevigo.org/sites/turismodevigo/files/lug253.jpg,42.2378348079872,-8.72342271126004,,gl-ES
8619,Centro Cultural Novagalicia,lugares,38,Museos,Centro Cultural,"Policarpo Sanz, 21, 2º",36202,986815077,www.obrasocialncg.com,"A Obra Social de Novagalicia ten o obxectivo de mellorar a calidade de vida da poboación, fomentando a participación, o voluntariado, o asociacionismo e achegando as novas tecnoloxías ao conxunto da sociedade.",http://www.turismodevigo.org/sites/turismodevigo/files/lug254.jpg,42.2377928866386,-8.7220676669618,,gl-ES
8620,Centro Social Novagalicia,lugares,38,Museos,Centro Social,"Policarpo Sanz, 24-26",36203,986828200,www.coleccioncaixanova.com,"É un edificio multifuncional, concibido co fin de que os seus espazos poidan ser utilizados por entidades públicas e privadas, así como por organizacións non gobernamentais que desempeñen actividades acordes coa filosofía do Centro.",http://www.turismodevigo.org/sites/turismodevigo/files/lug255.jpg,42.2374215635812,-8.72251540931047,,gl-ES
8632,Monumento a Julio Verne,lugares,39,Monumentos,Escultura,Rúa das Avendias,36202,,,"Trátase dunha homenaxe á cidade de Vigo realizada a Julio Verne (realizada no centenario da súa morte) pola mención á urbe viguesa no seu libro de ""20000 leguas de viaxe Submarina""",http://www.turismodevigo.org/sites/turismodevigo/files/lug267.jpg,42.241240136011,-8.72292170802367,,gl-ES
8585,O Adro,lugares,44,Praias,Praias,,36208,,,"Praia de area fina, resgardada do vento e cunha ocupación media na época de verán. A súa lonxitude aproximada é de 450 metros.",http://www.turismodevigo.org/sites/turismodevigo/files/lug220.jpg,42.2263713722495,-8.75417957651922,,gl-ES
8584,Carril,lugares,44,Praias,Praias,A Igrexa,36202,,,"Praia de area fina, resgardada aínda que en ocasións pode presentar unha ondada moderada. Ten unha ocupación baixa na época de verán. A súa lonxitude aproximada é de 600 metros e está galardoada coa bandeira azul.",http://www.turismodevigo.org/sites/turismodevigo/files/lug219.jpg,42.2233016181718,-8.76369572334447,,gl-ES
8583,Santa Baia,lugares,44,Praias,Praias,,36202,,,"Praia de area fina, resgardada do vento e cunha ocupación media na época de verán. A súa lonxitude aproximada é de 230 metros.",http://www.turismodevigo.org/sites/turismodevigo/files/lug218.jpg,42.2230587864556,-8.76730337341949,,gl-ES
8546,Igrexa del Carmen,lugares,37,Edificios singulares,Arquitectura relixiosa,"Paseo Padre Lorenzo, 2",36211,,,"Os terreos sobre os que se asenta a Igrexa foron doados por Doña Paula Gómez Curieses, nos anos 1936 -1939. A primeira pedra foi colocada en 1951, o 18 de marzo.",http://www.turismodevigo.org/sites/turismodevigo/files/lug178.jpg,42.2236778929434,-8.73171296966416,,gl-ES
8547,Igrexa de San Pedro de Sárdoma,lugares,37,Edificios singulares,Arquitectura relixiosa,Parroquia de Sárdoma,36214,,,"O conxunto parroquial está formado pola Igrexa, o adro e o cemiterio, que, xunto á Casa Reitoral, constitúen un exemplo destacado na parroquia.",http://www.turismodevigo.org/sites/turismodevigo/files/lug179.jpg,42.2172606841915,-8.71178856116699,,gl-ES
8548,Igrexa de San Jorge de Saiáns,lugares,37,Edificios singulares,Arquitectura relixiosa,Calle Eira Vella,36392,,,Igrexa de inspiración gótica na oxiva das ventás e barroca no xogo de volumes e nalgúns detalles como a fornela.,http://www.turismodevigo.org/sites/turismodevigo/files/lug180.jpg,42.1677162446445,-8.80469253389744,,gl-ES
8549,Igrexa de Oia,lugares,37,Edificios singulares,Arquitectura relixiosa,"Carretera de la Igrexa, Roteas",36390,,,"Esta Igrexa é un exemplo do modelo tradicional do rural galego. É de planta lonxitudinal sinxela, cunha soa nave cuberta a dúas augas.",http://www.turismodevigo.org/sites/turismodevigo/files/lug181.jpg,42.1826495750421,-8.80111689227044,,gl-ES
8550,Círculo Mercantil,lugares,37,Edificios singulares,Edificio singular,"Calle Príncipe, 44",36202,,,O edificio é de estilo ecléctico cunha composición clasicista. Foi realizado polo arquitecto Manuel Gómez Román no ano 1921.,http://www.turismodevigo.org/sites/turismodevigo/files/lug183.jpg,42.2366101395826,-8.72244239295161,,gl-ES
8551,Casa de Ceta,lugares,37,Edificios singulares,Arquitectura civil,"Plaza de Almeida, 2",36202,,,Palacete urbano do século XV enmarcado no estilo gótico tardío. Ten aspecto de torre grande medieval e está construído sobre perpiaños de pedra.,http://www.turismodevigo.org/sites/turismodevigo/files/lug184.jpg,42.2379065853052,-8.72809399688459,,gl-ES
8552,Igrexa de Navia (nueva),lugares,37,Edificios singulares,Arquitectura relixiosa,Parroquia de San Paio de Navia,36212,,,"Tras finalizar o seu proxecto da Igrexa de Inmaculada Concepción no barrio do Calvario, Román Conde embárcase na construción desta nova Igrexa na parroquia de Sampaio de Navia, na que logrará un xogo de volumes máis sosegado.",http://www.turismodevigo.org/sites/turismodevigo/files/lug185.jpg,42.2079828474107,-8.76715068780414,,gl-ES
8553,Igrexa de Navia,lugares,37,Edificios singulares,Arquitectura relixiosa,Parroquia de San Paio de Navia,36212,,,"A actual Igrexa baséase nunha ampliación da antiga Capela de 1900. No interior encóntrase un retablo de estilo barroco, que tamén sufriu reformas.",http://www.turismodevigo.org/sites/turismodevigo/files/lug187.jpg,42.2071447719605,-8.76750542284277,,gl-ES
8554,Verbum - Casa das Palabras,lugares,38,Museos,Casa das palabras,"Avda. de Samil, nº 17",36212,986240130,www.verbum.vigo.org,"Museo interactivo sobre todos os ámbitos relacionados coa comunicación humana, deseñado como un espazo cultural, lúdico e divulgativo no que os visitantes poden participar dun modo activo nos elementos expositivos.",http://www.turismodevigo.org/sites/turismodevigo/files/lug189.jpg,42.2128101707506,-8.77382191258537,,gl-ES
8555,Centro de Recepción de Visitantes - Oficina Municipal de Información Turística de Vigo,lugares,35,Puntos de información turística,Información,Estación Marítima de Ría (interior),36202,986224757,www.turismodevigo@vigo.org,Esta Oficina permanecerá aberta durante todo o ano cos seguintes horarios: Horario de verán: (De Abril a Setembro ): de luns a domingo: de 9:00 a 21:00 h. Horario de inverno: (De Outubro a Marzo): de luns a domingo: de 9:00 a 18:00 h,http://www.turismodevigo.org/sites/turismodevigo/files/lug190.jpg,42.2414195978855,-8.72840054853745,,gl-ES
8556,Oficina de Turismo de Vigo (Xunta de Galicia),lugares,35,Puntos de información turística,Información,"Cánovas del Castillo, 22",36202,986430577,,"Esta Oficina, dependente da Xunta de Galicia, permanecerá aberta durante todo o ano cos seguintes horarios: Luns a venres: de 09:30 a 14:00 e de 16:30 a 18:30 h. Sábados: de 10:00 a 13:30 h.",http://www.turismodevigo.org/sites/turismodevigo/files/lug191.jpg,42.2401179157237,-8.72616634196882,,gl-ES
8545,Ermita de la Guía,lugares,41,Turismo urbano,Arquitectura relixiosa,Monte de A Guía. Parroquia de Teis.,36207,,,A Ermida está dedicada á Virxe da Guía e ao Sagrado Corazón de Xesús.,http://www.turismodevigo.org/sites/turismodevigo/files/lug177.jpg,42.2555015543566,-8.70180430477845,,gl-ES
8544,Capilla de Nuestra Señora del Alba,lugares,41,Turismo urbano,Arquitectura relixiosa,Monte Alba,36315,,,"A planta desta Ermida está formada por dous rectángulos, un maior de 9.1 por 7 metros e o outro de 7.2 por 6 metros. Nos muros exteriores podemos ver un traballo de cadeirado, con bloques non sempre regulares.",http://www.turismodevigo.org/sites/turismodevigo/files/lug176.jpg,42.172496577151,-8.73613602619688,,gl-ES
8533,Cruceiro de Taberna,lugares,37,Edificios singulares,Arquitectura relixiosa,"A Taberna, s/n",36391,,,"No reverso mostra a Piedade, de pé e sostendo o corpo do seu fillo morto.",http://www.turismodevigo.org/sites/turismodevigo/files/lug159.jpg,42.1873722995241,-8.77704244653249,,gl-ES
8534,Cruceiro da rúa Poboadores,lugares,37,Edificios singulares,Arquitectura relixiosa,"Poboadores, s/n",36202,,,É un cruceiro con dobre función. A parte inferior é un peto de ánimas e a superior é un cruceiro.,http://www.turismodevigo.org/sites/turismodevigo/files/lug160.jpg,42.2358539720406,-8.73030046908426,,gl-ES
8536,Cruceiro do adro da igrexa de Valadares,lugares,37,Edificios singulares,Arquitectura relixiosa,"A Igrexa, s/n",36314,,,"A cruz é cadrada e no anverso ten a crucifixión, e no reverso á Piedade con fillo nos brazos, moito máis pequeno que a nai.",http://www.turismodevigo.org/sites/turismodevigo/files/lug162.jpg,42.1776165905781,-8.72407492468296,,gl-ES
8537,Edificio José Mouriño Vilas,lugares,37,Edificios singulares,Arquitectura civil,"Urzaiz, 5",36201,,,O edificio foi deseñado en 1946 polo arquitecto Pascual Bravo Sanfeliú. Este edificio destaca pola súa altura e xogo de volumes na parte superior.,http://www.turismodevigo.org/sites/turismodevigo/files/lug163.jpg,42.2358124686976,-8.71934207260909,,gl-ES
8538,Biblioteca Braille de la Once,lugares,37,Edificios singulares,Biblioteca,"Gran Vía, 15",36203,986227208,,Espazo dedicado á lectura e préstamo de libros con exemplares adaptados ás necesidades dos deficientes visuais.,http://www.turismodevigo.org/sites/turismodevigo/files/lug167.jpg,42.2333214606006,-8.71688940745036,,gl-ES
8539,Biblioteca de Torrecedeira,lugares,37,Edificios singulares,Biblioteca,"Torrecedeira, 86",36208,986813739,,Sala de lectura e servizo de préstamo de gran demanda e crecente utilización.,http://www.turismodevigo.org/sites/turismodevigo/files/lug170.jpg,42.2272984318301,-8.73462744813371,,gl-ES
8535,Cruceiro da fachada da igrexa da Consolación,lugares,37,Edificios singulares,Arquitectura relixiosa,Plaza da Consolación,36208,,,Soamente se conserva a columna coa cruz.,http://www.turismodevigo.org/sites/turismodevigo/files/lug161.jpg,42.2208535634188,-8.74530933738075,,gl-ES
8540,Cruceiro da Guía,lugares,37,Edificios singulares,Arquitectura relixiosa,A Guía,36207,,,Cruceiro con base cuadrangular sobre unha afloración granítica.,http://www.turismodevigo.org/sites/turismodevigo/files/lug172.jpg,42.256191539078,-8.70260156017203,,gl-ES
8541,Cruceiro de Cruceiro,lugares,37,Edificios singulares,Arquitectura relixiosa,"O Cruceiro, s/n",36390,,,"En cada cara aparecen caras de anxos, agás na cara anterior, baixo o Cristo onde aparece unha caveira representando o monte Gólgota.",http://www.turismodevigo.org/sites/turismodevigo/files/lug173.jpg,42.1824621323533,-8.80215958086106,,gl-ES
8542,Cruceiro do adro da igrexa de Coruxo,lugares,37,Edificios singulares,Arquitectura relixiosa,"A Igrexa, s/n",36391,,,"Representa a crucifixión, onde Cristo ten tres cravos, as pernas flexionadas e a cabeza ladeada. No reverso móstrase a Piedade, cun Cristo lixeiramente menor que a Virxe.",http://www.turismodevigo.org/sites/turismodevigo/files/lug174.jpg,42.1886496254623,-8.77662209131498,,gl-ES
8543,Mosteiro da Visitación das Salesas Reais,lugares,37,Edificios singulares,Mosteiro,"Montecelo, 14",36207,,,"O mosteiro da Visitación das Salesas Reales foi proxectado en 1942 polo arquitecto Antonio Pazos. Está situado no barrio da Calzada de Teis, próximo á Rúa Sanjurjo Badía.",http://www.turismodevigo.org/sites/turismodevigo/files/lug175.jpg,42.2430174691154,-8.7047242214613,,gl-ES
8557,Oficina Municipal de Turismo de Vigo,lugares,35,Puntos de información turística,Información,"Teófilo Llorente, 5",36202,986224757,,Esta Oficina permanecerá aberta durante todo o ano cos seguintes horarios: Luns a venres: de 8:30 a 19:30 h. Sábados: de 13:00 a 18:00 h.,http://www.turismodevigo.org/sites/turismodevigo/files/lug192.jpg,42.2386738785973,-8.7283100307374,,gl-ES
8558,Punto de Información Turística en Vigo,lugares,35,Puntos de información turística,Información,"Praza do Rei, s/n",36202,986810171,,Punto de información turística dentro do propio edificio do concello.,http://www.turismodevigo.org/sites/turismodevigo/files/lug193.jpg,42.2364150396916,-8.72663877418901,,gl-ES
8572,Barreiros,lugares,44,Praias,Praias,,36390,,,Praia aberta cunha ocupación baixa na época de verán debido á súa ondada moderada. A súa lonxitude aproximada é de 100 metros de area branca e fina.,,42.1804114421056,-8.81252570666434,,gl-ES
8573,Praia do Vao,lugares,44,Praias,Praias,Fontenla,36391,,,"Praia de area fina, resgardada do vento e cunha ocupación alta na época de verán. A súa lonxitude aproximada é de 800 metros e está galardoada coa bandeira azul.",http://www.turismodevigo.org/sites/turismodevigo/files/lug208.jpg,42.1979756649772,-8.79368501672135,,gl-ES
8574,A Sirenita,lugares,44,Praias,Praias,Breadouro,36391,,,"A súa forma é en cuncha, con base de area de cor branco e gran fino. Praia resgardada, vixiada e con zona para fondeo de embarcacións.",http://www.turismodevigo.org/sites/turismodevigo/files/lug209.jpg,42.1996303116164,-8.78676529052567,,gl-ES
8575,O Fechiño,lugares,44,Praias,Praias,A Carrasqueiro,36391,,,"Praia de area fina, resgardada do vento e cunha ocupación alta na época de verán. A súa lonxitude aproximada é de 100 metros e está galardoada coa bandeira azul.",http://www.turismodevigo.org/sites/turismodevigo/files/lug210.jpg,42.2008825822571,-8.78443554241418,,gl-ES
8576,As Barcas,lugares,44,Praias,Praias,,36391,,,"Praia de area fina, resgardada do vento e cunha ocupación alta na época de verán. A súa lonxitude aproximada é de 175 metros e está galardoada coa bandeira azul.",http://www.turismodevigo.org/sites/turismodevigo/files/lug211.jpg,42.2031476719644,-8.78154225124243,,gl-ES
8577,Samil,lugares,44,Praias,Praias,Samil,36212,,,"Ten forma de cuncha, a area é de cor branca e gran fino. Está resgardada aínda que é algo ventosa e de ondada moderada.  Pódese acceder a esta mediante a liña de autobuses urbanos con dirección a Samil.",http://www.turismodevigo.org/sites/turismodevigo/files/lug212.jpg,42.2098022109307,-8.77610577844538,,gl-ES
8579,O Tombo do Gato o De la Fuente,lugares,44,Praias,Praias,,36212,,,"Praia de area fina, resgardada do vento e cunha ocupación alta na época de verán. Está galardoada coa bandeira azul.",http://www.turismodevigo.org/sites/turismodevigo/files/lug214.jpg,42.2201378061408,-8.7759250068458,,gl-ES
8580,As Fontes,lugares,44,Praias,Praias,A Ameixeira,36212,,,"Praia de area fina, resgardada do vento e cunha ocupación alta na época de verán. A súa lonxitude aproximada é de 150 metros e está galardoada coa bandeira azul.",http://www.turismodevigo.org/sites/turismodevigo/files/lug215.jpg,42.2225208347114,-8.77294785342439,,gl-ES
8581,A Mourisca o Los Olmos,lugares,44,Praias,Praias,A Fonte,36202,,,"Praia de area fina, resgardada do vento e cunha ocupación alta na época de verán. A súa lonxitude aproximada é de 150 metros e está galardoada coa bandeira azul.",http://www.turismodevigo.org/sites/turismodevigo/files/lug216.jpg,42.2241000421769,-8.77081337872295,,gl-ES
8582,O Cocho,lugares,44,Praias,Praias,Alcabre,36202,,,"Praia de area fina, resgardada do vento e cunha ocupación media na época de verán. A súa lonxitude aproximada é de 250 metros e está galardoada coa bandeira azul.",http://www.turismodevigo.org/sites/turismodevigo/files/lug217.jpg,42.2242532733066,-8.76939093790816,,gl-ES
8571,Canto de Area,lugares,44,Praias,Praias,,36390,,,Praia aberta cunha ocupación baixa na época de verán debido á súa ondada moderada. A súa lonxitude aproximada é de 120 metros de area branca e fina.,http://www.turismodevigo.org/sites/turismodevigo/files/lug206.jpg,42.1822614861385,-8.81270046350073,,gl-ES
8570,Toralla,lugares,44,Praias,Praias,Toralla,36391,,,"Praia de area fina, resgardada do vento e cunha ocupación alta na época de verán. A súa lonxitude aproximada é de 200 metros e está galardoada coa bandeira azul.",http://www.turismodevigo.org/sites/turismodevigo/files/lug205.jpg,42.2002158366033,-8.80056940643516,,gl-ES
8559,Punto de Información Turístico (Padroado Turismo RRBB),lugares,35,Puntos de información turística,Información,Avda. de Peinador,36218,986804100,www.turismodevigo.es,Esta Oficina permanecerá aberta durante todo o ano cos seguintes horarios: Luns a venres: de 8:30 a 19:30 h. Sábados: de 13:00 a 18:00 h.,http://www.turismodevigo.org/sites/turismodevigo/files/lug194.jpg,42.2265494681754,-8.63249208594621,,gl-ES
8560,Oficina de Turismo de Vigo (Xunta de Galicia),lugares,35,Puntos de información turística,Información,"Estación Marítima, s/n",36202,986224787,,Oficina municipal de información turística e centro de recepción de visitantes.,http://www.turismodevigo.org/sites/turismodevigo/files/lug195.jpg,42.2366744994674,-8.73204001129307,,gl-ES
8561,Igrexa de Matamá,lugares,37,Edificios singulares,Arquitectura relixiosa,Calle de los Canteiros,36213,,,"Esta é unha Igrexa cunha gran torre no campanario, segundo os vellos libros de texto. Na Igrexa hai un vello retablo que pertenceu á antiga Colexiata de Santa María e que foi adquirido por 3000 reais.",http://www.turismodevigo.org/sites/turismodevigo/files/lug196.jpg,42.199579059208,-8.73806158328729,,gl-ES
8562,Cruceiro do adro da igrexa de Comesaña,lugares,37,Edificios singulares,Arquitectura relixiosa,"A Igrexa, s/n",36213,,,Como única representación ten a Cristo crucificado con tres cravos.,http://www.turismodevigo.org/sites/turismodevigo/files/lug197.jpg,42.200964744919,-8.73847980073568,,gl-ES
8563,Instituto Ferial de Vigo-IFEVI,lugares,41,Turismo urbano,Exposicións e actividades,"Avda. do Aeroporto, 772",36218,986486144,www.ifevi.com,"Con preto de cen eventos e unha afluencia de público que rolda o millón de visitantes ao ano, o carácter dinámico e innovador de IFEVI é hoxe a mellor garantía de éxito para o profesional disposto a crecer e asumir novos retos.",http://www.turismodevigo.org/sites/turismodevigo/files/lug198.jpg,42.2234311669436,-8.63867829275966,,gl-ES
8564,O Portiño,lugares,44,Praias,Praias,O Portiño,36392,,,"Praia de area fina, resgardada do vento e cunha ocupación alta na época de verán. A súa lonxitude aproximada é de 100 metros e está galardoada coa bandeira azul.",http://www.turismodevigo.org/sites/turismodevigo/files/lug199.jpg,42.1680025976903,-8.81644920096227,,gl-ES
8565,Os Muiños,lugares,44,Praias,Praias,A Corveira,36392,,,"Praia de area fina, resgardada do vento e cunha ocupación alta na época de verán. A súa lonxitude aproximada é de 150 metros e está galardoada coa bandeira azul.",http://www.turismodevigo.org/sites/turismodevigo/files/lug200.jpg,42.1746370574708,-8.81422178182862,,gl-ES
8566,Noivos,lugares,44,Praias,Praias,,36390,,,Praia aberta cunha ocupación alta na época de verán. A súa lonxitude aproximada é de 100 metros de area fina.,http://www.turismodevigo.org/sites/turismodevigo/files/lug201.jpg,42.1759935972656,-8.81410033237597,,gl-ES
8567,Buraca,lugares,44,Praias,Praias,Oia,36390,,,"Ten forma de cuncha e a súa area é de cor branca e gran fino. Praia resgardada, ventosa e con ondada moderada o que favorece a práctica do baño.",http://www.turismodevigo.org/sites/turismodevigo/files/lug202.jpg,42.1899040543099,-8.81244719109143,,gl-ES
8568,O Fuchiño,lugares,44,Praias,Praias,Oia,36390,,,"Praia de area fina, resgardada do vento e cunha ocupación alta na época de verán. A súa lonxitude aproximada é de 900 metros e está galardoada coa bandeira azul.",http://www.turismodevigo.org/sites/turismodevigo/files/lug203.jpg,42.1921280883911,-8.80277164069544,,gl-ES
8569,Canido,lugares,44,Praias,Praias,Canido,36390,,,"Praia de area fina, resgardada do vento e cunha ocupación alta na época de verán. A súa lonxitude aproximada é de 300 metros e está galardoada coa bandeira azul.",http://www.turismodevigo.org/sites/turismodevigo/files/lug204.jpg,42.1938500750542,-8.79731299529034,,gl-ES
8500,Xardíns de Eijo Garay,lugares,42,Xardíns urbanos,Parque,Concepción Arenal,36201,,,Este parque ten unha extensión de 18.000 m2. Nestes xardíns está situada a Xefatura ou Comandancia de Mariña e preciosas fontes como a do galo.,http://www.turismodevigo.org/sites/turismodevigo/files/lug122.jpg,42.2395937555774,-8.718588530707,,gl-ES
8499,Vivendas irmáns Suárez Eire/Purificación Suárez,lugares,37,Edificios singulares,Arquitectura civil,"Plaza de Compostela, 17",36201,,,"Exemplo de eclecticismo moderno, o edificio ten unha cornixa decorada, uns balcóns con reforzos de pedra e varandas de ferro. Como material construtivo utilizouse o granito da Serra de Castrelos.",http://www.turismodevigo.org/sites/turismodevigo/files/lug121.jpg,42.2391518223023,-8.72105606399042,,gl-ES
8498,Vivendas da rúa Uruguay,lugares,37,Edificios singulares,Arquitectura civil,"Uruguay, 11",36201,,,Edificio eclepticista proxectado por Genaro de la Fuente.,http://www.turismodevigo.org/sites/turismodevigo/files/lug120.jpg,42.2365210720317,-8.71807674533958,,gl-ES
8497,Visitación de las Salesas Reales,lugares,37,Edificios singulares,Arquitectura relixiosa,Sanjurjo Badía y Coutadas,36207,,,Trátase dun edificio deseñado por Antonio Pazos seguindo un estilo rexionalista aínda que con certo aire medieval. Data de 1942.,http://www.turismodevigo.org/sites/turismodevigo/files/lug119.jpg,42.2441463483087,-8.70338304041177,,gl-ES
8501,Centro de Divulgación Arqueolóxico Municipal,lugares,37,Edificios singulares,Arquitectura civil,Bajada a la Playa s/n. Saians.,36392,986460812,,"Trátase dunha iniciativa pioneira en Galicia que pretende coordinar, controlar, integrar, racionar e orientar todas as iniciativas en relación coa divulgación, didáctica e posta en valor da riqueza arqueolóxica de Vigo.",http://www.turismodevigo.org/sites/turismodevigo/files/lug123.jpg,42.1672680419837,-8.80652151571956,,gl-ES
8502,Igrexa de Valadares,lugares,37,Edificios singulares,Arquitectura relixiosa,Parroquia de Valadares,36314,,,"Igrexa rectangular, con nave única, cabeceira cadrada e torre campanario pegada á fachada, a cal mostra unha portada rematada por un frontón que enmarca a representación de San Andrés.",http://www.turismodevigo.org/sites/turismodevigo/files/lug124.jpg,42.177619128566,-8.72471713210472,,gl-ES
8503,Muíño Maquías,lugares,37,Edificios singulares,Arquitectura popular,Cerca del embalse de Zamáns,36310,,,"Trátase dun conxunto etnográfico formado por dous muíños. O principal, ademais de muíño tamén é vivenda. Ambos os dous conservan todas as canles e acuedutos que levaban a auga para poñer en marcha o muíño.",http://www.turismodevigo.org/sites/turismodevigo/files/lug125.jpg,42.1582897739415,-8.69070657279798,,gl-ES
8504,Igrexa de Santo Estevo de Beade,lugares,37,Edificios singulares,Arquitectura relixiosa,"A Igrexa, s/n",36312,,,"A Igrexa actual data do século XVII. No seu adro encóntrase un cruceiro, de orixe descoñecida, que se situou nese lugar arredor do 1854.",http://www.turismodevigo.org/sites/turismodevigo/files/lug126.jpg,42.1921964838636,-8.70648379353185,,gl-ES
8505,Igrexa de Santiago de Bembrive,lugares,37,Edificios singulares,Arquitectura relixiosa,Parroquia de Bembrive,36313,,,Esta Igrexa sofre varias modificacións ao longo da súa historia. As pedras traballadas dos seus muros falan da posible existencia dunha edificación menor.,http://www.turismodevigo.org/sites/turismodevigo/files/lug128.jpg,42.2038660672611,-8.68673752412871,,gl-ES
8506,Cristo do Cacheno,lugares,37,Edificios singulares,Arquitectura relixiosa,"Baruxáns, s/n",36214,,,O Cristo do Cacheno é un dos cruceiros máis sobresaíntes de Galicia.,http://www.turismodevigo.org/sites/turismodevigo/files/lug129.jpg,42.206352898672,-8.69837559675137,,gl-ES
8507,Mámoas de Chan dos Touciños,lugares,41,Turismo urbano,Patrimonio arqueolóxico,Candeán,36217,,,"Nun radio de menos de cen metros foron localizadas as catro mámoas coñecidas como de Chan dos Touciños. Monumentos funerarios nos que, polo menos nas tres primeiras está ao descuberto o acceso á cámara megalítica.",http://www.turismodevigo.org/sites/turismodevigo/files/lug130.jpg,42.2494113912042,-8.6665618445203,,gl-ES
8496,Reitorado da Universidade de Vigo,lugares,37,Edificios singulares,Arquitectura civil,Campus Universidade de Vigo,36310,,,"Forma parte do conxunto de Lagoas-Marcosende (centro comercial, aulario e teatro) deseñado polo arquitecto Enric Miralles.",http://www.turismodevigo.org/sites/turismodevigo/files/lug117.jpg,42.170191153903,-8.6849793333006,,gl-ES
8495,Pazo de San Roque,lugares,37,Edificios singulares,Edificio histórico,San Roque,36204,,,Trátase dunha propiedade privada non visitable aínda que na actualidade o parque deste magnífico edificio está aberto ao público.,http://www.turismodevigo.org/sites/turismodevigo/files/lug116.jpg,42.2272026817145,-8.71116081833371,,gl-ES
8494,Pazo de Rivera Atienza,lugares,37,Edificios singulares,Edificio histórico,Callejón de Rivera Atienza,36205,986261859,,Destacar a ampla solaina que se abre na fachada posterior do edificio así como o impoñente portalón de entrada no que hai un escudo ovalado.,,42.2291469204331,-8.69810573715797,,gl-ES
8484,Igrexa Asilo das Irmanciñas dos Pobres,lugares,37,Edificios singulares,Arquitectura relixiosa,"Pi y Margall, nº 2",36202,,,"O proxecto do edificio é de estilo neogótico e aparece asinado polo arquitecto Manuel Felipe Quintana en 1892, aínda que as obras remataron en 1910.",http://www.turismodevigo.org/sites/turismodevigo/files/lug104.jpg,42.2358186024561,-8.72897226962498,,gl-ES
8485,Igrexa de San Salvador de Coruxo,lugares,37,Edificios singulares,Arquitectura relixiosa,Parroquia de Coruxo. Valle del Fragoso,36391,,,"A actual Igrexa foi, na súa orixe, unha Igrexa monasterial. Ten planta basilical de tres naves e tres ábsidas semicirculares, sendo o central máis ancho e elevado.",http://www.turismodevigo.org/sites/turismodevigo/files/lug105.jpg,42.1897048190268,-8.77532564412162,,gl-ES
8486,Igrexa de Santa Cristina,lugares,37,Edificios singulares,Arquitectura relixiosa,"Santa Cristina, s/n",36214,,,"Igrexa de estilo románico, aínda que desgraciadamente perdeu gran parte dos seus elementos románicos. Lévase a cabo una remodelación no último terzo do século XIX sobre o antigo edificio.",http://www.turismodevigo.org/sites/turismodevigo/files/lug106.jpg,42.2277580653161,-8.69560585941034,,gl-ES
8487,Igrexa de Santa María de Castrelos,lugares,37,Edificios singulares,Arquitectura relixiosa,Rúa A Pastora,36213,,,"É o templo mellor conservado  do románico vigués, xunto coa de Santiago de Bembrive e a de San Salvador de Corujo. Data do ano 1216.",http://www.turismodevigo.org/sites/turismodevigo/files/lug107.jpg,42.2105307739239,-8.72568075883542,,gl-ES
8488,Igrexa de Santiago O Maior,lugares,37,Edificios singulares,Arquitectura relixiosa,"Avda García Barbón, s/n",36201,,,"A súa elaboración encárgase a Manuel Felipe Quintana, quen en 1896 redacta definitivamente o proxecto. A Igrexa ten un corte medieval historicista; a súa fachada principal mostra un estilo neogótico.",http://www.turismodevigo.org/sites/turismodevigo/files/lug108.jpg,42.2368802993843,-8.71797819437348,,gl-ES
8489,Paseo Avenida de Castelao,lugares,42,Xardíns urbanos,Parque,Avda. de Castelao,36209,,,Constitúe unha importante zona verde no núcleo da cidade onde é posible practicar baloncesto na súa cancha ou simplemente pasear e relaxarse.,http://www.turismodevigo.org/sites/turismodevigo/files/lug110.jpg,42.2202588033638,-8.73949315574245,,gl-ES
8490,Pazo da Pastora,lugares,37,Edificios singulares,Edificio histórico,Rúa do Conde,36210,,,Trátase dunha propiedade privada non visitable. Destaca o magnífico escudo da fachada que presenta curiosos detalles escultóricos. A fachada suroeste data de 1815.,http://www.turismodevigo.org/sites/turismodevigo/files/lug111.jpg,42.2205364372103,-8.72588257725417,,gl-ES
8491,Pazo da Raposeira,lugares,37,Edificios singulares,Edificio histórico,Raposeira,36214,,,Trátase dunha propiedade privada non visitable. Magnifícase a construción en granito de dúas plantas e con forma de U.,http://www.turismodevigo.org/sites/turismodevigo/files/lug112.jpg,42.2155363924702,-8.70032814254929,,gl-ES
8492,Pazo de Castrelos,lugares,37,Edificios singulares,Edificio histórico,Parque de Castrelos,36213,986295075,,Foi declarado monumento histórico artístico dende 1955. Na actualidade é sede do Museo Municipal Quiñones de León no que destaca a presenza de coleccións de Arqueoloxía e de Pintura.,http://www.turismodevigo.org/sites/turismodevigo/files/lug113.jpg,42.213311575337,-8.72769319007678,,gl-ES
8493,Pazo de Ribeira,lugares,37,Edificios singulares,Edificio histórico,,36205,,,Trátase dunha propiedade privada non visitable. O elemento máis característico do pazo é o portalón.,,42.2291469204331,-8.69810573715797,,gl-ES
8483,Grupo de Casas de Benito Sanjurjo,lugares,37,Edificios singulares,Arquitectura civil,"Urzaiz, 11-23",36201,,,Grupo de sete casas promovidas por Benito Sanjurjo Ramírez de Arellano entre os anos 1903-1912 e proxectadas por Michel Pacewicz e Jenaro de la Fuente Domínguez.,http://www.turismodevigo.org/sites/turismodevigo/files/lug103.jpg,42.2357032808222,-8.71912602387196,,gl-ES
8508,Soportais do Berbés,lugares,37,Edificios singulares,Arquitectura civil,Praza da Constitución,36202,,,"Declarados monumento histórico-artísticos o 8 de febreiro de 1946. A súa disposición recorda ás típicas rúas santiaguesas. No seu entorno destacan as edificacións de corte mariñeiro, casas pequenas e pequenas tabernas.",http://www.turismodevigo.org/sites/turismodevigo/files/lug132.jpg,42.2374477173206,-8.72799196493196,,gl-ES
8517,Cruceiro do interior do cemiterio de Matamá,lugares,37,Edificios singulares,Arquitectura relixiosa,"Pereiró, s/n",36213,,,"Destacar que en fronte do cruceiro hai un ""Pousadoiro"" de ataúdes que data de 1953.",http://www.turismodevigo.org/sites/turismodevigo/files/lug142.jpg,42.1994404900707,-8.73744216564666,,gl-ES
8522,Cruceiro do adro da Igrexa de Beade,lugares,37,Edificios singulares,Arquitectura relixiosa,"A Igrexa, s/n",36312,,,"A cruz é lisa e ten a Cristo crucificado, con tres cravos, pernas flexionadas e a cabeza inclinada cara o lado dereito. No reverso aparece a Piedade. Consérvanse ademais dúas cruces lisas na entrada do adro sobre o muro.",http://www.turismodevigo.org/sites/turismodevigo/files/lug147.jpg,42.1921825359277,-8.70686499209293,,gl-ES
8524,Cruceiro da Igrexa de Sta Cristina de Lavadores,lugares,37,Edificios singulares,Arquitectura relixiosa,Igrexa de Sta. Cristina de Lavadores,36214,,,"Do cruceiro orixinal só se conserva a cruz na que se representa a Cristo crucificado con tres cravos, en posición ríxida e os brazos paralelos.",http://www.turismodevigo.org/sites/turismodevigo/files/lug150.jpg,42.2267001927865,-8.69693779009189,,gl-ES
8525,Vivendas para a Compañía Carbonera,lugares,37,Edificios singulares,Arquitectura civil,"Plaza de Compostela, 6, 7, 9",36201,,,"Destaca a falta de elementos decorativos e as formas redondeadas fálannos dun estilo racionalista. Como material construtivo utilizouse granito branco de gran fino, extraído da Serra de Castrelos, e pulido na superficie.",http://www.turismodevigo.org/sites/turismodevigo/files/lug151.jpg,42.2390503843608,-8.72258298315118,,gl-ES
8526,Cruz da Costa,lugares,37,Edificios singulares,Arquitectura relixiosa,"A Costa, s/n",36213,,,Ten representados os elementos da paixón e a inscrición ilexible dentro dunha lenda.,http://www.turismodevigo.org/sites/turismodevigo/files/lug152.jpg,42.2087102951328,-8.7213517269346,,gl-ES
8527,Cruceiro do adro da Igrexa de San Pedro de Sárdoma,lugares,37,Edificios singulares,Arquitectura relixiosa,"Laxe, s/n",36214,,,"Móstrase a Cristo crucificado, e no reverso está a Piedade cunha Virxe orando, ambas as dúas moi logradas e de roupaxes amplas.",http://www.turismodevigo.org/sites/turismodevigo/files/lug153.jpg,42.2174646237223,-8.71149356638286,,gl-ES
8528,Cruceiro de Laxe,lugares,37,Edificios singulares,Arquitectura relixiosa,"Laxe, s/n",36214,,,Nel aparece representada a crucifixión e a Piedade.,http://www.turismodevigo.org/sites/turismodevigo/files/lug154.jpg,42.2170268153568,-8.7144378659146,,gl-ES
8529,Cruceiro do barrio da Costa,lugares,37,Edificios singulares,Arquitectura relixiosa,"A Costa, s/n",36213,,,"A cruz é lisa, e no anverso ten a Cristo crucificado con tres cravos e pernas flexionadas. No reverso está representada a Piedade, que sostén a Cristo cunha man sobre a cintura.",http://www.turismodevigo.org/sites/turismodevigo/files/lug155.jpg,42.2102396641093,-8.72522161249598,,gl-ES
8530,Cruceiro de Tarrío,lugares,37,Edificios singulares,Arquitectura relixiosa,"Tarrío, s/n",36391,,,Represéntase a crucifixión e no reverso a Piedade cun querubín debaixo.,http://www.turismodevigo.org/sites/turismodevigo/files/lug156.jpg,42.1925236358592,-8.77395438965384,,gl-ES
8531,Cruceiro do adro da Igrexa de Oia,lugares,37,Edificios singulares,Arquitectura relixiosa,"A Igrexa, s/n",36390,,,"Na cruz ten representados símbolos da Paixón, como martelo e a escaleira.",http://www.turismodevigo.org/sites/turismodevigo/files/lug157.jpg,42.1826712522109,-8.80143805678495,,gl-ES
8532,Cruz de Freixal,lugares,37,Edificios singulares,Arquitectura relixiosa,"Fragoselo, s/n",36391,,,"Conta a tradición que a situación da cruz vén dada porque alí morreu unha ""pescantina"" que viña de Camos e que por iso se colocou alí a cruz.",http://www.turismodevigo.org/sites/turismodevigo/files/lug158.jpg,42.1824445991478,-8.76712900575638,,gl-ES
8521,Cruceiro de Zamáns,lugares,37,Edificios singulares,Arquitectura relixiosa,"Zamáns, s/n",36310,,,Represéntase a Crucifixión cun Cristo inexpresivo e ríxido. No reverso aparece representada a Piedade cun pequeno Cristo entre os xeonllos.,http://www.turismodevigo.org/sites/turismodevigo/files/lug146.jpg,42.1547396137659,-8.68847191522071,,gl-ES
8520,Cruceiro do cemiterio de Bouzas,lugares,37,Edificios singulares,Arquitectura relixiosa,Cemiterio de Bouzas,36213,,,A cruz é lisa e de sección cuadrangular. No anverso ten a Cristo crucificado con tres cravos. No reverso ten á Piedade cunha Virxe coas mans unidas e un Cristo de pequenas dimensións.,http://www.turismodevigo.org/sites/turismodevigo/files/lug145.jpg,42.2130995587747,-8.75293904091316,,gl-ES
8509,Cruz de O Calvario de Candeán,lugares,37,Edificios singulares,Arquitectura relixiosa,"Candeán de Arriba, s/n",36217,,,É unha das cruces que formaban parte do Vía Crucis.,http://www.turismodevigo.org/sites/turismodevigo/files/lug134.jpg,42.2410681328254,-8.66895100150479,,gl-ES
8510,Cruz do lugar de Babío,lugares,37,Edificios singulares,Arquitectura relixiosa,"Babío, s/n",36312,,,"Trátase dun cruceiro atípico e que se parece máis ben a unha das cruces que forman o ""Vía Crucis""",,42.1923785641791,-8.71520034117704,,gl-ES
8511,Cruceiro do lugar de Cruceiro de Fragoselo,lugares,37,Edificios singulares,Arquitectura relixiosa,"Fragoselo, s/n",36391,,,"Representa a Cristo crucificado, suxeito con tres cravos e as pernas flexionadas. Conserva restos de pintura azul na cruz e parte do corpo.",http://www.turismodevigo.org/sites/turismodevigo/files/lug136.jpg,42.1802268935702,-8.76403120158451,,gl-ES
8512,Cruz do Calvario de Cabral,lugares,37,Edificios singulares,Arquitectura relixiosa,"O Calvario, s/n",36218,,,"Formaba parte do Vía Crucis, sendo posiblemente o punto final do mesmo. Hoxe en día aínda celébrase a procesión de Venres Santo ata este lugar intentando conservar unha tradición antiga.",http://www.turismodevigo.org/sites/turismodevigo/files/lug137.jpg,42.2220607493835,-8.65538439794432,,gl-ES
8513,Cruz de Bouzós,lugares,37,Edificios singulares,Arquitectura relixiosa,"A Luz, s/n",36391,,,Di a tradición que os enterros paraban diante dela e rezábase alí.,http://www.turismodevigo.org/sites/turismodevigo/files/lug138.jpg,42.1872747927348,-8.76812829873881,,gl-ES
8514,Conxuntos parciais do barrio vello de Vigo,lugares,37,Edificios singulares,Arquitectura civil,Vigo,36202,,,"Conxunto urbano non declarado como conxunto histórico, pero que funciona como tal.",http://www.turismodevigo.org/sites/turismodevigo/files/lug139.jpg,42.2377493254884,-8.72833108580292,,gl-ES
8515,Cruz do Adro da Igrexa de San Salvador de Teis,lugares,37,Edificios singulares,Arquitectura relixiosa,"A Igrexa, s/n",36216,,,Formou parte do Vía Crucis procesional arredor da Igrexa.,http://www.turismodevigo.org/sites/turismodevigo/files/lug140.jpg,42.2574265504594,-8.68646769896455,,gl-ES
8516,Cruceiro vello,lugares,37,Edificios singulares,Arquitectura relixiosa,"Cruceiro de Bouzas, s/n",36208,,,No anverso preséntasenos a crucifixión cun Cristo con tres cravos. No reverso obsérvase a coroación da Virxe por dous anxos e unha Virxe enriba da lúa e a serpe.,http://www.turismodevigo.org/sites/turismodevigo/files/lug141.jpg,42.2243016251919,-8.75002217444147,,gl-ES
8518,Cruceiro do cemiterio de Candeán,lugares,37,Edificios singulares,Arquitectura relixiosa,Cemiterio de Candeán,36217,,,A cruz ten nós imitando a madeira e é de sección circular. Ten como única representación a Cristo crucificado con tres cravos e a cabeza ladeada.,http://www.turismodevigo.org/sites/turismodevigo/files/lug143.jpg,42.2420044363674,-8.6651816684592,,gl-ES
8519,Cruceiro do cemiterio de Santa Mariña de Cabral,lugares,37,Edificios singulares,Arquitectura relixiosa,"A Igrexa, s/n",36218,,,"Represéntase a un Cristo crucificado con tres cravos e a cabeza inclinada, as pernas flexionadas e os brazos oblicuos, dando a sensación de que xa estaba morto na cruz. Un anxo aparece suspendido no aire.",http://www.turismodevigo.org/sites/turismodevigo/files/lug144.jpg,42.2234922906772,-8.65725609794702,,gl-ES
8450,Casa Sanjurjo,lugares,37,Edificios singulares,Arquitectura civil,"Plaza de Compostela, 20",36201,,,"O edificio foi deseñado en 1906, por Pacewicz. Constitúe unha das obras do arquitecto con máis influencias parisienses.",http://www.turismodevigo.org/sites/turismodevigo/files/lug069.jpg,42.2397073539127,-8.72119494846791,,gl-ES
8449,Casa Salvador Aranda Graña,lugares,37,Edificios singulares,Arquitectura civil,"Concepción Arenal, 1",36201,,,"O edificio foi deseñado en 1898 por Michel Pacewicz. Trátase dunha casa de planta baixa e dous pisos con tres áticos piramidais, e con óculos para a ventilación da baixocuberta.",http://www.turismodevigo.org/sites/turismodevigo/files/lug068.jpg,42.2399851210574,-8.72091718757219,,gl-ES
8448,Casa Rosendo Silva,lugares,37,Edificios singulares,Arquitectura civil,"Plaza de Compostela, 19",36201,,,O edificio foi deseñado en 1907 por Michel Pacewicz e Jenaro de la Fuente Domínguez. A súa arquitectura é ecléctica debido ás aportacións dos arquitectos máis famosos da época.,http://www.turismodevigo.org/sites/turismodevigo/files/lug067.jpg,42.2397073547876,-8.72091718621402,,gl-ES
8447,Casa Ramón Arbones,lugares,37,Edificios singulares,Arquitectura civil,"Elduayen, 4",36202,,,O edificio foi deseñado en 1892 por Jenaro de la Fuente Domínguez. Foi edificado polo construtor Antonio González Romero.,http://www.turismodevigo.org/sites/turismodevigo/files/lug066.jpg,42.2380407379783,-8.72702794684211,,gl-ES
8451,Casa Vicente Coma,lugares,37,Edificios singulares,Arquitectura civil,"Urzaiz, 17",36201,,,"O edificio foi deseñado en 1921 polo arquitecto Manuel Gómez Román. Destacan a súa bufarda moi ornamentada, con linteis en arco de medio punto e adornada con volutas.",http://www.turismodevigo.org/sites/turismodevigo/files/lug070.jpg,42.2354383026287,-8.71851551251621,,gl-ES
8452,Casas de Oya,lugares,37,Edificios singulares,Arquitectura civil,"García Barbón, nº 15, 17, 19",36201,,,Edificio de estilo ecléctico de corte francés e base neobarroca de forte simetría.,http://www.turismodevigo.org/sites/turismodevigo/files/lug071.jpg,42.2371216818802,-8.71869545469442,,gl-ES
8453,Casas para Álvaro López Mora,lugares,37,Edificios singulares,Arquitectura civil,"Colón, 29-31",36201,,,"O edificio foi deseñado en 1908 por Jenaro de la Fuente Domínguez. O que leva o número 29 foi modificado por José Franco Montes en 1917, que lle engadiu dúas bufardas laterais. Ambos os dous edificios foron concibidos baixo formulacións eclécticos.",http://www.turismodevigo.org/sites/turismodevigo/files/lug072.jpg,42.2363741625086,-8.72008388044108,,gl-ES
8454,Casas para Joaquín Pérez Boullosa,lugares,37,Edificios singulares,Arquitectura civil,"Plaza de Compostela, 24",36201,,,"O edificio foi deseñado en 1910 por José Franco Montes. É o máximo representante das influencias da arquitectura ""sezessionista vienesa"" no modernismo vigués.",http://www.turismodevigo.org/sites/turismodevigo/files/lug073.jpg,42.2397073519461,-8.72175047297855,,gl-ES
8455,Castelo de San Sebastián,lugares,37,Edificios singulares,Construcción histórica,Parque de O Castro,36202,,,"Do Castelo de San Sebastián soamente quedan os muros do lado norte, con dúas garitas porque un baluarte e dous medios baluartes que se conservaban foron derrubados para construír sobre eles o Pazo Consistorial.",http://www.turismodevigo.org/sites/turismodevigo/files/lug074.jpg,42.2369292300832,-8.72674951134173,,gl-ES
8456,Castelo do Castro,lugares,37,Edificios singulares,Construcción histórica,Parque de O Castro,36203,,,"Foi construído no s. XVII, ao mesmo tempo que as murallas da cidade e o castelo de San Sebastián, polos enxeñeiros militares, Juan Villarroel e Prado e os irmáns Carlos e Fernando de Grunemberg.",http://www.turismodevigo.org/sites/turismodevigo/files/lug075.jpg,42.2325876576669,-8.72616134062013,,gl-ES
8457,Castro y Fortaleza,lugares,37,Edificios singulares,Construcción histórica,Monte O Castro,36202,,,"En 1926, e de xeito fortuíto, producíronse os primeiros achados na zona de restos dun poboado castrexo. Posteriormente puxéronse ao descuberto un total de 45 construcións pertencentes ao período que vai dende o s. II- I a. d. C.",http://www.turismodevigo.org/sites/turismodevigo/files/lug076.jpg,42.2319488180429,-8.72627985016231,,gl-ES
8446,Casa Prudencio Nandín,lugares,37,Edificios singulares,Arquitectura civil,"Plaza de Compostela, 13, 14",36201,,,"O edificio foi deseñado por Jenaro de la Fuente Domínguez e construído en dúas fases: a primeira en 1892 e a segunda en 1900, pero constitúe un conxunto. É un edificio ecléctico e moi ornamentado.",http://www.turismodevigo.org/sites/turismodevigo/files/lug065.jpg,42.2391407513262,-8.72139456925014,,gl-ES
8445,Casa Pereira Castro,lugares,37,Edificios singulares,Arquitectura civil,"Plaza de la Constitución, 8",36202,,,"Edificio do século XVIII, pertencente á Casa Pereira. Como ornamento ten tres escudos da familia.",http://www.turismodevigo.org/sites/turismodevigo/files/lug064.jpg,42.2385812930542,-8.7262169428509,,gl-ES
8435,El antiguo Rectorado de la Universidad de Vigo,lugares,37,Edificios singulares,Arquitectura civil,"Areal, 46, Esquina A Oporto 1",36201,,,"O edificio actual é o único que mantén unha aliñación distinta dos demais inmobles desta rúa, por cambios no proxecto inicial de edificación de dita rúa.",http://www.turismodevigo.org/sites/turismodevigo/files/lug054.jpg,42.2389215697612,-8.71640863513712,,gl-ES
8436,Casa González Salgado,lugares,37,Edificios singulares,Arquitectura civil,"Avda. Montero Ríos, 30 y 32",36201,,,"O edificio foi deseñado en 1908 por Jenaro de la Fuente Domínguez. É un edificio ecléctico con catro plantas e faiado tamén simétrico e un ancho corpo central, algo saínte, con catro vans enmarcados en almofadados.",http://www.turismodevigo.org/sites/turismodevigo/files/lug055.jpg,42.2404836253924,-8.72154031049172,,gl-ES
8437,Casa Hermanos Suárez,lugares,37,Edificios singulares,Arquitectura civil,"Avda. Montero Ríos, 2",36202,,,"O edificio foi deseñado por José Franco Montes en 1920. Trátase dun edificio de baixo e tres plantas, como a maioría das edificacións do Ensanche Olloqui. Foi construído polo contratista Antonio González Romero.",http://www.turismodevigo.org/sites/turismodevigo/files/lug056.jpg,42.2402661735249,-8.7241348760891,,gl-ES
8438,Casa Ledo,lugares,37,Edificios singulares,Arquitectura civil,Porta do Sol,36202,,,"O edificio foi deseñado en 1893 por Jenaro de la Fuente Domínguez. Ten tres fachadas e cinco plantas. A fachada principal, que da á ""Porta do Sol"", destaca por ter o eixe de simetría centralizado.",http://www.turismodevigo.org/sites/turismodevigo/files/lug057.jpg,42.2380727872859,-8.7261730655921,,gl-ES
8439,Casa Manuel Millán,lugares,37,Edificios singulares,Arquitectura civil,"Lepanto, 5",36201,,,"O edificio foi deseñado en 1921 por Manuel Gómez Román, para vivenda de Manuel Millán. O máis destacable son os capites ecléctico-clasicistas, que serven de exemplo para ver a primeira etapa do eclecticismo na cidade viguesa.",http://www.turismodevigo.org/sites/turismodevigo/files/lug058.jpg,42.2346986836673,-8.71589624169174,,gl-ES
8440,Casa Marcelino Barreras,lugares,37,Edificios singulares,Arquitectura civil,"Velázquez Moreno, 15-17",36202,,,O edificio foi deseñado en 1882 por Domingo Rodríguez Sesmero para Marcelino Barreras. É un edificio simétrico con un chafrán no que destacan as galerías de fundición que serven de amplos miradoiros.,http://www.turismodevigo.org/sites/turismodevigo/files/lug059.jpg,42.2374852221841,-8.72175046051426,,gl-ES
8441,Casa Odriozola,lugares,37,Edificios singulares,Arquitectura civil,"García Barbón, nº 4",36201,,,"O edificio foi deseñado en dúas etapas. En 1875, Alejandro Rodríguez Sesmero, asinou unha planta baixa e dous pisos; en 1908 Jenaro de la Fuente Domínguez asinou a adición ao terceiro piso, trala compra do edificio por Manuel Rodríguez Rodríguez.",http://www.turismodevigo.org/sites/turismodevigo/files/lug060.jpg,42.2373669768909,-8.7196061421324,,gl-ES
8442,Casa para Manuel Bárcena Franco,lugares,37,Edificios singulares,Arquitectura civil,"Policarpo Sanz, 24",36202,,,"Realizado en granito de cantería, é un edificio de estilo ecléctico. Ten unha planta baixa e tres pisos, e non presenta ningunha alteración en relación co proxecto inicial.",http://www.turismodevigo.org/sites/turismodevigo/files/lug061.jpg,42.2374852219878,-8.72202822271768,,gl-ES
8443,Casa para María Igrexas Curty,lugares,37,Edificios singulares,Arquitectura civil,"Plaza de Compostela, 4, 5",36201,,,O edificio foi deseñado por Jenaro de la Fuente Álvarez en 1940. O proxecto é marcadamente racionalista con formas redondeadas e sen ornamentación.,http://www.turismodevigo.org/sites/turismodevigo/files/lug062.jpg,42.2390170221635,-8.72313865500889,,gl-ES
8444,Casa Pedro Román,lugares,37,Edificios singulares,Arquitectura civil,"Joaquín Yánez, 12",36202,,,"O edificio foi deseñado en 1889 por Jenaro de la Fuente Domínguez. Hoxe é a Biblioteca Central, pero anteriormente foi un edificio comercial e tamén albergou o casino vigués.",http://www.turismodevigo.org/sites/turismodevigo/files/lug063.jpg,42.2390421169541,-8.72526941810899,,gl-ES
8434,Casa Estanislao Durán,lugares,37,Edificios singulares,Arquitectura civil,"Príncipe, 41",36202,,,"Edificio de estilo ecléctico con influencia francesa, remarcada pola presenza da mansarda superior cunha serie de bufardas decoradas con frontón curvo e volutas nos laterais.",http://www.turismodevigo.org/sites/turismodevigo/files/lug053.jpg,42.2366519238619,-8.72175045497292,,gl-ES
8482,Garaxe Americano,lugares,37,Edificios singulares,Arquitectura civil,"García Barbón, 29",36201,,,"Este edificio foi construído para a venda de automóbiles, pero a súa aparencia monumentalista é propia de calquera edificación institucional da época.",http://www.turismodevigo.org/sites/turismodevigo/files/lug102.jpg,42.2372074680702,-8.71786178591829,,gl-ES
8472,Edificio Miguel Seijo Serodio,lugares,37,Edificios singulares,Arquitectura civil,"Tomás Alonso, 224",36208,,,O edificio foi deseñado en 1945 polo arquitecto Francisco Castro Represas. Destacan dúas balconadas corridas con balaustrada e un balcón semicircular.,http://www.turismodevigo.org/sites/turismodevigo/files/lug091.jpg,42.2240613703943,-8.75152901488072,,gl-ES
8473,Edificio Natalio Sanchón,lugares,37,Edificios singulares,Arquitectura civil,"Policarpo Sanz, 22",36202,,,O edificio foi deseñado en 1935 polo arquitecto Francisco Castro Represas.,http://www.turismodevigo.org/sites/turismodevigo/files/lug092.jpg,42.2374221295337,-8.72295035617771,,gl-ES
8474,Edificio Núñez Berdiales,lugares,37,Edificios singulares,Arquitectura civil,"Urzaiz, 42",36203,,,O edificio foi deseñado en 1905 por Pacewicz. Ten unha planta baixa e tres altas.,http://www.turismodevigo.org/sites/turismodevigo/files/lug093.jpg,42.2347743346027,-8.71760818145824,,gl-ES
8475,Edificio para Francisco Solleiro Negrete,lugares,37,Edificios singulares,Arquitectura civil,"Policarpo Sanz, 21",36202,,,O edificio foi deseñado en 1891 por Manuel Felipe Quintana. Destaca a simetría das súas fachadas unidas por un chafrán con galerías nas dúas últimas plantas.,http://www.turismodevigo.org/sites/turismodevigo/files/lug094.jpg,42.2378130984831,-8.72205686545205,,gl-ES
8476,Edificio para Jesús Crespo Filgueira,lugares,37,Edificios singulares,Arquitectura civil,"Cuba, 2, esquina a Urzaiz",36204,,,O edificio foi deseñado en 1938 polo arquitecto Francisco Castro Represas. As obras de cantería foron feitas polo mestre canteiro Ángel García Martínez utilizando o granito branco da serra de Castrelos e un rematado final de puído.,http://www.turismodevigo.org/sites/turismodevigo/files/lug095.jpg,42.2341316325804,-8.71591627783067,,gl-ES
8477,Edificio Simeón,lugares,37,Edificios singulares,Arquitectura civil,"Porta do Sol, 6",36203,,,"O edificio ten tres pisos dos cales o último é abuhardillado. A planta baixa, dedicada ao comercio, ten un carácter suntuoso e monumental cunha excelente cantería en granito.",http://www.turismodevigo.org/sites/turismodevigo/files/lug096.jpg,42.2376613704553,-8.72500908910496,,gl-ES
8478,Facultade de Ciencias Económicas do Campus de Vigo,lugares,37,Edificios singulares,Arquitectura civil,Campus Universitario de Vigo,36310,,,Trátase dun edificio de vangarda deseñado por Alfonso Penela Fernández.,http://www.turismodevigo.org/sites/turismodevigo/files/lug098.jpg,42.1701586658028,-8.6809168804034,,gl-ES
8479,Fonte da Falperra,lugares,37,Edificios singulares,Arquitectura popular,Falperra,36202,,,Trátase dunha fonte moderna pero coroada de monumentalidade barroca.,http://www.turismodevigo.org/sites/turismodevigo/files/lug099.jpg,42.2352630711676,-8.728694504176,,gl-ES
8480,Fonte da Praza da Princesa,lugares,37,Edificios singulares,Arquitectura popular,Plaza de la Princesa,36202,,,Tense constancia da súa existencia dende o ano 1889.,http://www.turismodevigo.org/sites/turismodevigo/files/lug100.jpg,42.2383505548749,-8.72589530584672,,gl-ES
8481,Fonte Paseo Alfonso XII,lugares,37,Edificios singulares,Arquitectura popular,Alfonso XII,36202,,,Hai datos de crónicas que xa falan da súa existencia no ano 1875 cando o Faro de Vigo dá a noticia da súa construción.,http://www.turismodevigo.org/sites/turismodevigo/files/lug101.jpg,42.2366519046258,-8.72786122567813,,gl-ES
8423,Casa de Francisca Alfaya,lugares,37,Edificios singulares,Arquitectura civil,"Carral, 7, 9",36202,,,"O edificio foi deseñado en 1901, por Benito Gómez Román. Trátase dunha obra con abundantes formas neogóticas e neorrománicas.",http://www.turismodevigo.org/sites/turismodevigo/files/lug042.jpg,42.238988195287,-8.72458585151493,,gl-ES
8471,Edificio do Hotel Universal,lugares,37,Edificios singulares,Arquitectura civil,Montero Ríos,36202,,www.marriott.com/hotels/travel/VGOPA-AC-Hotel-Palacio-Universal,"O edificio consérvase igual que no proxecto inicial e albergou o Hotel Universal, un dos máis coñecidos da cidade, durante moitos anos. Este hotel foi adquirido pola cadea AC, que levou a cabo unha remodelación interior.",http://www.turismodevigo.org/sites/turismodevigo/files/lug090.jpg,42.2400527669455,-8.72469973988995,,gl-ES
8470,Edificio do Hotel Moderno,lugares,37,Edificios singulares,Arquitectura civil,"Policarpo Sanz, 1",36203,,,"É unha das obras máis emblemáticas de Michel Pacewicz e do eclecticismo do século XIX na cidade. É coñecido popularmente como íHotel El Modernoí por ter albergado, durante moito tempo, unha instalación hoteleira.",http://www.turismodevigo.org/sites/turismodevigo/files/lug089.jpg,42.2380727935561,-8.72506201610924,,gl-ES
8458,Centro de Saúde de Coia,lugares,37,Edificios singulares,Arquitectura civil,"Porriño, 5",36209,,,Foi construído no ano 1999 e é obra do arquitecto Alfonso Penela.,http://www.turismodevigo.org/sites/turismodevigo/files/lug077.jpg,42.2170394737805,-8.74572613144052,,gl-ES
8460,Conxunto de muiños de Gontade,lugares,37,Edificios singulares,Arquitectura popular,Gontade,36391,,,"Conxunto de 4 muíños, obra do século XVIII, perfectamente restaurados.",http://www.turismodevigo.org/sites/turismodevigo/files/lug079.jpg,42.1919270150979,-8.78421413685596,,gl-ES
8461,Edificio Albo,lugares,37,Edificios singulares,Arquitectura civil,"Gran Vía, 2, esquina a Urzaiz",36203,,,"Destaca a grande monumentalidade e verticalidade do edificio, conferida polos volumes dispostos en chanzos e rematados por unha escultura feita por Jesús Picón, copia da Victora de Samotracia.",http://www.turismodevigo.org/sites/turismodevigo/files/lug080.jpg,42.2345651035536,-8.71681303844016,,gl-ES
8462,Edificio Banca Viñas-Aranda,lugares,37,Edificios singulares,Arquitectura civil,"Reconquista, 9-11",36201,,,O edificio foi deseñado en 1941 por Antonio Pazos Ramilo.,http://www.turismodevigo.org/sites/turismodevigo/files/lug081.jpg,42.2384565533443,-8.72334588807285,,gl-ES
8463,Edificio Banco de España,lugares,37,Edificios singulares,Arquitectura civil,"Policarpo Sanz, 15",36202,,,O edificio foi deseñado en 1938 polo arquitecto Romualdo de Madariaga. Todo o edificio ten amplos ventanais con arcos de medio punto e uns vans enmarcados con saliente e decorados.,http://www.turismodevigo.org/sites/turismodevigo/files/lug082.jpg,42.2377629855468,-8.72286151079495,,gl-ES
8464,Edificio Bonín,lugares,37,Edificios singulares,Arquitectura civil,"Areal, 42 , esquina Oporto 2",36201,,,É unha das principais obras do autor na cidade que se conserva íntegra. É de estilo ecléctico e está composta por unha planta baixa e tres pisos. A ornamentación é dun recargado barroquismo.,http://www.turismodevigo.org/sites/turismodevigo/files/lug083.jpg,42.2389215689955,-8.71668639756985,,gl-ES
8465,Edificio comercial de Príncipe,lugares,37,Edificios singulares,Arquitectura civil,Príncipe 5 y Policarpo Sanz 8,36202,,,Edificio comercial proxectado por Jenaro de la Fuente Álvarez a finais da década dos anos 20.,http://www.turismodevigo.org/sites/turismodevigo/files/lug084.jpg,42.2376581380734,-8.72087777735032,,gl-ES
8466,Edificio comercial para José González,lugares,37,Edificios singulares,Arquitectura civil,"Marqués de Valadares, 23",36201,,,O edificio foi deseñado en 1949 polo arquitecto Francisco Castro Represas. O máis destacable son os numerosos e amplos ventanais separados por delgadas pilastras.,http://www.turismodevigo.org/sites/turismodevigo/files/lug085.jpg,42.2384317328684,-8.72210223942349,,gl-ES
8467,Edificio da Equitativa,lugares,37,Edificios singulares,Arquitectura civil,"Marqués de Valadares, 21",36201,,,"Ó edificio foi deseñado en 1948 polo arquitecto Manuel Cabanyens y Mata. É un exemplo da arquitectura academicista monumentalista, aínda que ten algunhas formas clasicistas.",http://www.turismodevigo.org/sites/turismodevigo/files/lug086.jpg,42.2384565540258,-8.72306812524044,,gl-ES
8468,Edificio da Escola de Artes e Oficios de Vigo,lugares,37,Edificios singulares,Arquitectura civil,"García Barbón, 5",36201,,,"O edificio foi construído en dúas etapas. Na primeira constrúese a fachada principal da Rúa García Barbón e o primeiro tramo da  Rúa Pontevedra; estas obras conclúen en 1900. O seu dono, José García Barbón, cédeo ao Concello.",http://www.turismodevigo.org/sites/turismodevigo/files/lug087.jpg,42.237694436917,-8.71960638078445,,gl-ES
8469,Edificio de Peritos,lugares,37,Edificios singulares,Arquitectura civil,"Conde de Torrecedeira, 86",36202,,,Edificio construído entre 1931-1941 e proxectado por Jenaro de la Fuente Álvarez. Pertencen xa a un eclecticismo academicista que se impuxo entre os arquitectos vigueses na segunda e terceira década do s. XX.,http://www.turismodevigo.org/sites/turismodevigo/files/lug088.jpg,42.22859172522,-8.73338215000662,,gl-ES
8399,Espacio Colección Caixanova,lugares,38,Museos,Arquitectura civil,"Policarpo Sanz, 24-26, 1ª pl.",36202,986120078,,Nel é posible realizar un percorrido polas distintas correntes pictóricas e escultóricas xurdidas de artistas galegos durante os últimos 150 anos.,http://www.turismodevigo.org/sites/turismodevigo/files/lug017.jpg,42.2374597694273,-8.72232907700858,,gl-ES
8398,Casa das Artes,lugares,38,Museos,Arquitectura civil,"Policarpo Sanz, nº 15",36202,986439525,,"Foi concibido como Banco de España ata que, a mediados da década dos 80, o Ministerio de Economía e Facenda decide eliminar tódalas sucursais que non estean en capitais de provincia, pasando a formar parte do patrimonio municipal.",http://www.turismodevigo.org/sites/turismodevigo/files/lug016.jpg,42.2378259966466,-8.72283821203541,,gl-ES
8397,Vigo Zoo,lugares,41,Turismo urbano,Zoolóxico,Monte da Madroa s/n,36216,,,"Ten unha extensión de 55.676 m2 ampliables nos que se desenvolven unha gran variedade de actividades dirixidas ao ensino, divulgación, investigación, turismo, ocio, investigación e conservación de especies.",http://www.turismodevigo.org/sites/turismodevigo/files/lug015.jpg,42.248555591232,-8.67511870901679,,gl-ES
8396,Barrio de Bouzas,lugares,41,Turismo urbano,Arquitectura civil,Bouzas,36208,,,Destacan as casas mariñeiras de tipoloxía tradicional formando un armazón urbano típico da Galicia litoral.,http://www.turismodevigo.org/sites/turismodevigo/files/lug014.jpg,42.2254735168679,-8.75389949126066,,gl-ES
8400,Fundación Laxeiro,lugares,38,Museos,Fundación,"Rúa Policarpo Sánz, 15 3º",36202,986438475,www.laxeiro.es,"Pretende a difusión, conservación e catalogación da obra do pintor José Otero Abeledo, Laxeiro así como o apoio e difusión da arte contemporánea e de novos creadores.",http://www.turismodevigo.org/sites/turismodevigo/files/lug018.jpg,42.2378259966466,-8.72283821203541,,gl-ES
8401,Fundación Liste - Museo Liste,lugares,38,Museos,Museo,"Pastora, 22",36210,,,"Programación de actividades e talleres dirixidos a escolares e adultos, tamén dispoñemos de fichas de traballo e diverso material didáctico adaptado. Realízanse audicións, proxeccións audiovisuais, campamentos, investigacións, etc.",http://www.turismodevigo.org/sites/turismodevigo/files/lug019.jpg,42.2178562777952,-8.73105330766909,,gl-ES
8403,Museo Anfaco da Industria Conserveira,lugares,38,Museos,Arquitectura civil,"Ctra. Colexio Universitario, 16",36310,,,"Ca creación deste centro preténdese mostrar un percorrido centenario sobre os fitos históricos que caracterizaron o nacemento do sector empresarial conserveiro, primeiro dende a Ría de Vigo, ata converterse nun referente nacional.",http://www.turismodevigo.org/sites/turismodevigo/files/lug021.jpg,42.1683750623723,-8.6866947508932,,gl-ES
8404,Museo do Mar de Galicia,lugares,38,Museos,Museo didáctico,"Avda. Atlántida, nº 160",36208,986247750,www.museodomar.com,Un lugar onde comprender a enorme vinculación histórica dos galegos co mar a través do seu aproveitamento e coñecemento.,http://www.turismodevigo.org/sites/turismodevigo/files/lug022.jpg,42.2240067201781,-8.77015868495418,,gl-ES
8407,Museo de Arte Deportivo,lugares,38,Museos,Arquitectura civil,Avda. Balaidos. Estadio Municipal,36210,986297101,,"O Museo Deportivo inaugurouse o 12 de marzo de 1999 e abrangue toda a historia do Real Club Celta dende o seu nacemento, en 1923 coa fusión do Real Vigo Sporting Club e o Real Fortuna, ata os nosos días.",http://www.turismodevigo.org/sites/turismodevigo/files/lug025.jpg,42.213636825766,-8.73725559300173,,gl-ES
8395,Parque lineal Río Lagares,lugares,42,Xardíns urbanos,Parque,,36213,,,Un paseo por este parque nos permítenos observar unha gran diversidade de aves por estar próximo á desembocadura do río Lagares.,http://www.turismodevigo.org/sites/turismodevigo/files/lug013.jpg,42.206926131724,-8.7522706947625,,gl-ES
8394,Parque Forestal de Coruxo,lugares,43,Parques forestais,Parque,Coruxo,36391,,,"Trátase dun grande espazo verde situado nas proximidades da cidade de Vigo. Nos 20000 metros cadrados de superficie que ocupa encontraremos: fonte, miradoiro, mesas e barbacoas.",http://www.turismodevigo.org/sites/turismodevigo/files/lug012.jpg,42.1775784610625,-8.77763229577193,,gl-ES
8384,Parque de Castrelos e Xardíns de Quiñones de León,lugares,42,Xardíns urbanos,Parque,Avda. Castrelos,36213,,,"Integra os xardíns históricos e bosque do pazo, o estanque moderno, o arboredo de Castrelos e unha parte do Paseo do Lagares.",http://www.turismodevigo.org/sites/turismodevigo/files/lug002.jpg,42.2133145495391,-8.72921592597079,,gl-ES
8387,Parque de la Guía,lugares,42,Xardíns urbanos,Parque,"Avda. Doña Fermina, s/n",36207,,,Este parque ten unha extensión de 200.000 metros cadrados e está situado no Barrio de Teis. No cumio encóntrase a Ermida de Nosa Señora das Neves dende onde se divisa unha preciosa vista da Ría de Vigo e da cidade.,http://www.turismodevigo.org/sites/turismodevigo/files/lug005.jpg,42.2569235758019,-8.70116067148812,,gl-ES
8388,Parque de la Riouxa,lugares,42,Xardíns urbanos,Parque,Teis,36216,,,Este parque ten unha extensión de 59.700 metros cadrados e encóntrase na Parroquia de Teis. Ten unha gran superficie non arborada e na parte inferior do parque ten un pequeno anfiteatro onde se celebran as festas e outras actuacións.,http://www.turismodevigo.org/sites/turismodevigo/files/lug006.jpg,42.2583122301686,-8.68171692439986,,gl-ES
8389,Parque Do Castro,lugares,42,Xardíns urbanos,Parque,Vigo,36203,,,Trátase dun parque situado no centro da cidade de Vigo. O monte do Castro é un dos parques máis frecuentados da cidade e un símbolo para todos os vigueses.,http://www.turismodevigo.org/sites/turismodevigo/files/lug007.jpg,42.2329844043402,-8.72564376013243,,gl-ES
8390,Parque Forestal Monte dos Pozos,lugares,43,Parques forestais,Parque,"As Barrocas, Valadares",36204,,,"O Parque Forestal ocupa unhas 11 hectáreas de extensión permitindo aos vigueses gozar dunha excepcional vista sobre a súa cidade e sobre a súa ría, á parte de permitirlle realizar multitude de actividades no magnífico marco natural que ofrece.",http://www.turismodevigo.org/sites/turismodevigo/files/lug008.jpg,42.1808901710965,-8.73786073616735,,gl-ES
8391,Parque Forestal de Saiáns,lugares,43,Parques forestais,Parque,Saiáns,36390,,,"Trátase dun grande espazo verde situado nas proximidades da cidade de Vigo. Nos 23500 metros cadrados de superficie que ocupa encontraremos: bar, restaurante, fonte, miradoiro, teléfono público, mesas, barbacoas e autobús (liña 26).",http://www.turismodevigo.org/sites/turismodevigo/files/lug009.jpg,42.169752859578,-8.78833471424756,,gl-ES
8392,Parque Forestal de Oia,lugares,43,Parques forestais,Parque,Oia,36390,,,"Trátase dun grande espazo verde situado nas proximidades da cidade de Vigo. Nos 39700 metros cadrados de superficie que ocupa encontraremos: zona de acampada, fonte, miradoiro, mesas e barbacoas.",http://www.turismodevigo.org/sites/turismodevigo/files/lug010.jpg,42.1757236880917,-8.79576318559623,,gl-ES
8393,Parque Forestal Monte Alba-Cepudo,lugares,43,Parques forestais,Parque,Valadares,36315,,,"Trátase dun grande espazo verde situado nas proximidades da cidade de Vigo. Nos 42000 metros cadrados de superficie que ocupa encontraremos: bar, restaurante, fonte, miradoiro, teléfono público e barbacoas.",http://www.turismodevigo.org/sites/turismodevigo/files/lug011.jpg,42.1686547462229,-8.7331224052176,,gl-ES
8408,Antiga Casa do Concello de Vigo,lugares,37,Edificios singulares,Arquitectura civil,Plaza de la Constitución,36202,,,"O edificio foi deseñado en 1859-1860 por José María Ortiz. Na actualidade alberga unha sala de exposicións e a biblioteca da Fundación Penzol, pero anteriormente foi a Casa Consistorial.",http://www.turismodevigo.org/sites/turismodevigo/files/lug026.jpg,42.2383477852914,-8.72576261424091,,gl-ES
8409,Antigo edificio da Caixa de Aforros,lugares,37,Edificios singulares,Arquitectura civil,"Velázquez Moreno, 53",36202,,,"É un edificio de corte clásico academicista cun potente zócalo, elevadas pilastras que abarcan as dúas plantas, zapatas decoradas con elementos vexetais, arquitrabe e unha pronunciada cornixa que abarca todo o edificio.",http://www.turismodevigo.org/sites/turismodevigo/files/lug027.jpg,42.2369296902849,-8.72175045763319,,gl-ES
8410,Banco de Vigo,lugares,35,Puntos de información turística,Arquitectura civil,"Colón, esquina Policarpo Sanz",36202,,,"O edificio foi deseñado por Manuel Gómez Román entre 1919-1923 seguindo o estilo modernista pero cos matices propios do ""secesionismo vienés"".",http://www.turismodevigo.org/sites/turismodevigo/files/lug028.jpg,42.2378485421046,-8.7205428336653,,gl-ES
8405,Museo Francisco Fernández del Riego,lugares,38,Museos,Colección de arte,"Praza da Princesa, 2",36203,986226459,,"En 1995 Francisco Fernández del Riego (Vilanova de Lourenzá, 1913) fai doazón dos seus fondos bibliográficos, documentais e artísticos á cidade de Vigo, cidade na que vive e traballa.",http://www.turismodevigo.org/sites/turismodevigo/files/lug023.jpg,42.2371362207869,-8.72685999824154,,gl-ES
8424,Casa de Joaquín de Miguel,lugares,37,Edificios singulares,Arquitectura civil,"Marqués de Valadares, 37",36201,,,O edificio foi deseñado por Manuel Gómez Román en 1928 para Joaquín de Miguel. O máis destacado é a súa porta de acceso enmarcada por dúas pilastras lisas con arestas nas esquinas e un frontón na parte superior.,http://www.turismodevigo.org/sites/turismodevigo/files/lug043.jpg,42.2384094317048,-8.72134205215534,,gl-ES
8425,Casa de Manuel Blanco García,lugares,37,Edificios singulares,Arquitectura civil,"Areal, 8, 10, 12 Y 14",36201,,,O edificio foi deseñado en 1879 por Alejandro Rodríguez Sesmero. Trátase dun edificio con sete casas cuxa fachada está tratada como única edificación.,http://www.turismodevigo.org/sites/turismodevigo/files/lug044.jpg,42.2391518253007,-8.72008389554333,,gl-ES
8426,Casa de Pardo Labarta,lugares,37,Edificios singulares,Arquitectura civil,"Porta do Sol, 11",36203,,,O edificio foi deseñado en 1911 por Jenaro de la Fuente Domínguez. Foi edificado polo mestre canteiro José Araujo Pérez para o rico comerciante Pardo Labarta.,http://www.turismodevigo.org/sites/turismodevigo/files/lug045.jpg,42.2379343827681,-8.72557104952805,,gl-ES
8427,Casa de Paulino Yáñez,lugares,37,Edificios singulares,Arquitectura civil,"Plaza de Compostela, 12",36201,,,"O edificio foi deseñado en 1900 por Michel Pacewicz. É de estilo historicista cunhas fachadas impresionantes, sobre todo a da Praza de Compostela.",http://www.turismodevigo.org/sites/turismodevigo/files/lug046.jpg,42.2390857811294,-8.72173426718392,,gl-ES
8429,Casa de Saturnino García,lugares,37,Edificios singulares,Arquitectura civil,"Plaza de Compostela, 31, 32,33",36202,,,"O edificio foi deseñado en 1912 por Manuel Gómez Román. É unha edificación modernista na que destaca o emprego de azulexo decorado, sobre unha pedra de gran groso e algo terrosa nos corpos saíntes.",http://www.turismodevigo.org/sites/turismodevigo/files/lug048.jpg,42.2395251443102,-8.72435413798361,,gl-ES
8430,Casa Diego Arias Taboada,lugares,37,Edificios singulares,Arquitectura civil,"Abeleira Menéndez, 8",36202,,,"Edificio de características barrocas polos seus recercados, cornixa e ménsulas graduadas sobre as que descansan pequenos balcóns.",http://www.turismodevigo.org/sites/turismodevigo/files/lug049.jpg,42.2378727803196,-8.72599658989732,,gl-ES
8431,Casa Eligio Prieto Igrexas,lugares,37,Edificios singulares,Arquitectura civil,"Príncipe, 12",36203,,,"O edificio foi deseñado en 1925 por Jenaro de la Fuente Álvarez. Destaca pola súa decoración, sobre todo nas dúas plantas superiores.",http://www.turismodevigo.org/sites/turismodevigo/files/lug050.jpg,42.237661371759,-8.72417579894346,,gl-ES
8432,Casa Enrique Lagos,lugares,37,Edificios singulares,Arquitectura civil,"Policarpo Sanz, 19",36202,,,O edificio foi deseñado en 1901 por Michel Pacewicz. Destaca pola preciosa labra da súa cantería e a súa empinada cuberta cunha esvelta bufarda central.,http://www.turismodevigo.org/sites/turismodevigo/files/lug051.jpg,42.237762985959,-8.72258374858253,,gl-ES
8422,Casa de Felipe Collazo,lugares,37,Edificios singulares,Arquitectura civil,"Avda de Montero Ríos, 38",36201,,,O edificio foi deseñado en 1904 por Jenaro de la Fuente Domínguez. Ten catro plantas e un chafrán que serve de eixe de simetría entre as súas dúas fachadas.,http://www.turismodevigo.org/sites/turismodevigo/files/lug041.jpg,42.2404836271025,-8.72126254846485,,gl-ES
8421,Casa de Donesteve Quirós,lugares,37,Edificios singulares,Arquitectura civil,"Joaquín Yánez, 12",36202,,,"O edificio foi deseñado en 1876 por Alejandro Rodríguez Sesmero. O máis destacable é a balaustrada de círculos entrelazados con floreiros sobre pedestais, que coroa as dúas fachadas.",http://www.turismodevigo.org/sites/turismodevigo/files/lug040.jpg,42.2392878356784,-8.72501324693812,,gl-ES
8420,Casa de Domingo Davila,lugares,37,Edificios singulares,Arquitectura civil,"Plaza de Compostela, 21",36201,,,"O edificio foi deseñado por Manuel Gómez Román en 1942 para Domingo Davila. Destaca a súa porta de acceso, enmarcada por arestas sobresaíntes da pedra lisa.",http://www.turismodevigo.org/sites/turismodevigo/files/lug039.jpg,42.2391518228393,-8.7207783005387,,gl-ES
8411,Biblioteca Universitaria de Vigo,lugares,37,Edificios singulares,Biblioteca,Campus Universidade de Vigo,36310,986813853,www.uvigo.es/uvigo_gl/administracion/biblioteca/,"Presente fisicamente nos tres campus, a Biblioteca Universitaria conta en cada un deles cunha biblioteca central e varias salas repartidas polas escolas e facultades que compoñen a Universidade.",http://www.turismodevigo.org/sites/turismodevigo/files/lug029.jpg,42.1692802895494,-8.68366618107154,,gl-ES
8412,Casa Acuña Soaje,lugares,37,Edificios singulares,Arquitectura civil,"Policarpo Sanz, 23",36202,,,O edificio foi deseñado en 1897 por Pacewicz. A fachada do edificio ten abundantes miradoiros e galerías de formas afiligranadas metálicas e moi decoradas.,http://www.turismodevigo.org/sites/turismodevigo/files/lug030.jpg,42.237813099648,-8.7217791030184,,gl-ES
8413,Casa Bárcena,lugares,37,Edificios singulares,Arquitectura civil,"Real, 14",36202,,,O edificio foi deseñado en 1863 por Manuel de Uceda. O seu estilo é ecléctico clasicista con reminiscencias do renacemento italiano.,http://www.turismodevigo.org/sites/turismodevigo/files/lug031.jpg,42.2391849378605,-8.72749134255561,,gl-ES
8414,Casa Bernardo Rodríguez López,lugares,37,Edificios singulares,Arquitectura civil,"Colón, 42",36202,,,O edificio foi deseñado en 1883 por Jenaro de la Fuente y Domínguez. A parte alta ten un reloxo rodeado de orlas e grilandas e está flanqueado por dous floreiros sobre pedestais a cada lado.,http://www.turismodevigo.org/sites/turismodevigo/files/lug032.jpg,42.2361293963355,-8.72049175111747,,gl-ES
8415,Casa da rúa Carral,lugares,37,Edificios singulares,Arquitectura civil,"Carral, 15",36202,,,O edificio foi deseñado en 1898 por Benito Gómez Román e pertence a familiares deste.,http://www.turismodevigo.org/sites/turismodevigo/files/lug033.jpg,42.238988195287,-8.72458585151493,,gl-ES
8416,Casa de Araujo,lugares,37,Edificios singulares,Arquitectura civil,"Real, 33",36202,,,"Casa construída no século XVIII con dúas fachadas feitas con cadeirado apicoado a que da á rúa Alta, e cicelada a que da á Rúa Real.",,42.2386300667068,-8.72860261002805,,gl-ES
8417,Casa de Ceta o de Arines,lugares,37,Edificios singulares,Arquitectura civil,"Real, 17",36202,,,Casa sinxela construída con perpiaños de pedra. Destaca polo seu escudo señorial.,http://www.turismodevigo.org/sites/turismodevigo/files/lug035.jpg,42.2389968976134,-8.72752246902661,,gl-ES
8418,Casa de Benigno y Camilo Fernández,lugares,37,Edificios singulares,Arquitectura civil,"Urzáiz, 28",36203,,,O edificio foi deseñado en 1913 por Jenaro de la Fuente y Domínguez. O edificio é eclecticista pero incorpora elementos decorativos propios do modernismo que se estaban difundindo.,http://www.turismodevigo.org/sites/turismodevigo/files/lug036.jpg,42.2351379684867,-8.71846792584939,,gl-ES
8419,Casa de Correos y Telégrafos de Vigo,lugares,37,Edificios singulares,Arquitectura civil,Plaza de Compostela,36201,,,"O edificio foi deseñado en 1920 por Manuel Gómez Román. É unha construción sinxela, cunha planta baixa, tres altas e un torre grande sobre o chafrán.",http://www.turismodevigo.org/sites/turismodevigo/files/lug038.jpg,42.238964629033,-8.72342947344299,,gl-ES
8383,Parque Camilo José Cela,lugares,42,Xardíns urbanos,Parque,Pi y Margall y Torrecedeira,36202,,,"Este parque ten unha extensión de 7.000 m2 e está no centro de Vigo, entre as rúas Pi y Margall e Torrecedeira. Foi construído por Agustín Arca en honor ao premio Nobel Camilo José Cela.",http://www.turismodevigo.org/sites/turismodevigo/files/lug001.jpg,42.2322026576291,-8.73060442290014,,gl-ES
8578,Argazada,lugares,44,Praias,Praias,,36212,,,"Praia de area fina, resgardada do vento e cunha ocupación alta na época de verán. A súa lonxitude aproximada é de 410 metros e está galardoada coa bandeira azul.",http://www.turismodevigo.org/sites/turismodevigo/files/lug213.jpg,42.216134586501,-8.77597442099225,,gl-ES
8386,Parque de A Bouza,lugares,42,Xardíns urbanos,Parque,Rúa Padre Seixas,36209,,,"O parque de A Bouza conta con grandes áreas de paseo, xardíns e estanques. O maior tesouro que esconde é un espazo natural de 3.721 metros cadrados con 19 especies diferentes de aves, ourizos, reptiles e anfibios.",http://www.turismodevigo.org/sites/turismodevigo/files/lug004.jpg,42.2133433831844,-8.7474140369344,,gl-ES
